{
 "type": "FeatureCollection",
 "generatedAt": "2026-10-01T01:08:23.990837+00:00",
 "source": "Golemio / Operátor ICT (Pražská datová platforma)",
 "features": [
  {
   "type": "Feature",
   "geometry": {
    "type": "Point",
    "coordinates": [
     14.44365,
     50.108845
    ]
   },
   "properties": {
    "id": "AHOLA",
    "name": "Praha 7-Holešovice",
    "district": "praha-7",
    "aqIndex": 2,
    "aqLabel": "dobrá",
    "aqColor": "#5FE0CF",
    "components": [
     {
      "type": "NO2",
      "value": 24.7
     },
     {
      "type": "PM10",
      "value": 28.1
     },
     {
      "type": "PM2_5",
      "value": 9.8
     }
    ],
    "updatedAt": "2026-08-12T06:45:00.621Z"
   }
  },
  {
   "type": "Feature",
   "geometry": {
    "type": "Point",
    "coordinates": [
     14.257226,
     50.107086
    ]
   },
   "properties": {
    "id": "ALERA",
    "name": "Letiště Praha",
    "district": "praha-6",
    "aqIndex": 2,
    "aqLabel": "dobrá",
    "aqColor": "#5FE0CF",
    "components": [
     {
      "type": "NO2",
      "value": 15.7
     },
     {
      "type": "O3",
      "value": 49
     },
     {
      "type": "PM10",
      "value": 44.2
     },
     {
      "type": "PM2_5",
      "value": 10.9
     }
    ],
    "updatedAt": "2026-08-12T06:45:00.621Z"
   }
  },
  {
   "type": "Feature",
   "geometry": {
    "type": "Point",
    "coordinates": [
     14.309583,
     50.030514
    ]
   },
   "properties": {
    "id": "ARERA",
    "name": "Praha 5-Řeporyje",
    "district": "praha-reporyje",
    "aqIndex": 2,
    "aqLabel": "dobrá",
    "aqColor": "#5FE0CF",
    "components": [
     {
      "type": "NO2",
      "value": 22.3
     },
     {
      "type": "PM10",
      "value": 21.9
     },
     {
      "type": "PM2_5",
      "value": 6.7
     }
    ],
    "updatedAt": "2026-08-12T06:45:00.621Z"
   }
  },
  {
   "type": "Feature",
   "geometry": {
    "type": "Point",
    "coordinates": [
     14.472661,
     50.07515
    ]
   },
   "properties": {
    "id": "ASROA",
    "name": "Praha 10-Šrobárova",
    "district": "praha-10",
    "aqIndex": 1,
    "aqLabel": "velmi dobrá",
    "aqColor": "#19B8CE",
    "components": [
     {
      "type": "NO2",
      "value": 7.5
     },
     {
      "type": "PM10",
      "value": 13.9
     },
     {
      "type": "PM2_5",
      "value": 4.4
     }
    ],
    "updatedAt": "2026-08-12T06:45:00.621Z"
   }
  }
 ]
}