{
 "type": "FeatureCollection",
 "generatedAt": "2026-09-07T12:54:24Z",
 "source": "IPR Praha - UAP (KULTKKC, komunitni / kulturni centra, Geoportal Praha)",
 "features": [
  {
   "type": "Feature",
   "geometry": {
    "type": "Point",
    "coordinates": [
     14.535256,
     50.055822
    ]
   },
   "properties": {
    "id": "ipr-kultkkc-centra-3871",
    "name": "Sokol Hostivař",
    "type": "kulturní centrum",
    "address": null,
    "cooling": "ac",
    "tier": "B",
    "source": "IPR Praha – ÚAP (KULTKKC)"
   }
  },
  {
   "type": "Feature",
   "geometry": {
    "type": "Point",
    "coordinates": [
     14.434376,
     50.101687
    ]
   },
   "properties": {
    "id": "ipr-kultkkc-centra-4140",
    "name": "Rodinné centrum Letná",
    "type": "rodinné centrum",
    "address": null,
    "cooling": "ac",
    "tier": "B",
    "source": "IPR Praha – ÚAP (KULTKKC)"
   }
  },
  {
   "type": "Feature",
   "geometry": {
    "type": "Point",
    "coordinates": [
     14.515628,
     50.024441
    ]
   },
   "properties": {
    "id": "ipr-kultkkc-centra-4071",
    "name": "Sbor Církve bratrské Praha 4 – Jižní Město (Kostelna)",
    "type": "sborový dům",
    "address": null,
    "cooling": "ac",
    "tier": "B",
    "source": "IPR Praha – ÚAP (KULTKKC)"
   }
  },
  {
   "type": "Feature",
   "geometry": {
    "type": "Point",
    "coordinates": [
     14.41678,
     50.128497
    ]
   },
   "properties": {
    "id": "ipr-kultkkc-centra-3938",
    "name": "Stanice Církve bratrské Bohnice",
    "type": "sborová stanice",
    "address": null,
    "cooling": "ac",
    "tier": "B",
    "source": "IPR Praha – ÚAP (KULTKKC)"
   }
  },
  {
   "type": "Feature",
   "geometry": {
    "type": "Point",
    "coordinates": [
     14.617091,
     50.081113
    ]
   },
   "properties": {
    "id": "ipr-kultkkc-centra-4132",
    "name": "Stará pošta",
    "type": "společenský sál",
    "address": null,
    "cooling": "ac",
    "tier": "B",
    "source": "IPR Praha – ÚAP (KULTKKC)"
   }
  },
  {
   "type": "Feature",
   "geometry": {
    "type": "Point",
    "coordinates": [
     14.417505,
     50.066817
    ]
   },
   "properties": {
    "id": "ipr-kultkkc-centra-4037",
    "name": "Husův sbor, Komunitní centrum \"Vráťa\"",
    "type": "komunitní centrum",
    "address": null,
    "cooling": "ac",
    "tier": "B",
    "source": "IPR Praha – ÚAP (KULTKKC)"
   }
  },
  {
   "type": "Feature",
   "geometry": {
    "type": "Point",
    "coordinates": [
     14.453097,
     50.081879
    ]
   },
   "properties": {
    "id": "ipr-kultkkc-centra-3968",
    "name": "Atrium na Žižkově",
    "type": "kulturní centrum",
    "address": null,
    "cooling": "ac",
    "tier": "B",
    "source": "IPR Praha – ÚAP (KULTKKC)"
   }
  },
  {
   "type": "Feature",
   "geometry": {
    "type": "Point",
    "coordinates": [
     14.476597,
     50.107148
    ]
   },
   "properties": {
    "id": "ipr-kultkkc-centra-3985",
    "name": "KC Kotlaska",
    "type": "komunitní centrum",
    "address": null,
    "cooling": "ac",
    "tier": "B",
    "source": "IPR Praha – ÚAP (KULTKKC)"
   }
  },
  {
   "type": "Feature",
   "geometry": {
    "type": "Point",
    "coordinates": [
     14.429585,
     50.091931
    ]
   },
   "properties": {
    "id": "ipr-kultkkc-centra-3923",
    "name": "Studio Citadela",
    "type": "kulturní centrum",
    "address": null,
    "cooling": "ac",
    "tier": "B",
    "source": "IPR Praha – ÚAP (KULTKKC)"
   }
  },
  {
   "type": "Feature",
   "geometry": {
    "type": "Point",
    "coordinates": [
     14.426802,
     50.078543
    ]
   },
   "properties": {
    "id": "ipr-kultkkc-centra-3925",
    "name": "Bridge Centrum",
    "type": "komunitní centrum",
    "address": null,
    "cooling": "ac",
    "tier": "B",
    "source": "IPR Praha – ÚAP (KULTKKC)"
   }
  },
  {
   "type": "Feature",
   "geometry": {
    "type": "Point",
    "coordinates": [
     14.399538,
     50.065751
    ]
   },
   "properties": {
    "id": "ipr-kultkkc-centra-4105",
    "name": "Komunitní prostor Smíchov",
    "type": "komunitní centrum",
    "address": null,
    "cooling": "ac",
    "tier": "B",
    "source": "IPR Praha – ÚAP (KULTKKC)"
   }
  },
  {
   "type": "Feature",
   "geometry": {
    "type": "Point",
    "coordinates": [
     14.345598,
     50.049762
    ]
   },
   "properties": {
    "id": "ipr-kultkkc-centra-3936",
    "name": "Komunitní centrum a kostel Svatého Prokopa (Centrum Butovice)",
    "type": "komunitní centrum",
    "address": null,
    "cooling": "ac",
    "tier": "B",
    "source": "IPR Praha – ÚAP (KULTKKC)"
   }
  },
  {
   "type": "Feature",
   "geometry": {
    "type": "Point",
    "coordinates": [
     14.578874,
     50.089168
    ]
   },
   "properties": {
    "id": "ipr-kultkkc-centra-4019",
    "name": "KC jako doma",
    "type": "komunitní centrum",
    "address": null,
    "cooling": "ac",
    "tier": "B",
    "source": "IPR Praha – ÚAP (KULTKKC)"
   }
  },
  {
   "type": "Feature",
   "geometry": {
    "type": "Point",
    "coordinates": [
     14.421302,
     50.078124
    ]
   },
   "properties": {
    "id": "ipr-kultkkc-centra-3907",
    "name": "Novoměstská radnice",
    "type": "kulturní centrum",
    "address": null,
    "cooling": "ac",
    "tier": "B",
    "source": "IPR Praha – ÚAP (KULTKKC)"
   }
  },
  {
   "type": "Feature",
   "geometry": {
    "type": "Point",
    "coordinates": [
     14.415082,
     50.085455
    ]
   },
   "properties": {
    "id": "ipr-kultkkc-centra-4062",
    "name": "Unitaria (Pražská obec unitářů)",
    "type": "komunitní centrum",
    "address": null,
    "cooling": "ac",
    "tier": "B",
    "source": "IPR Praha – ÚAP (KULTKKC)"
   }
  },
  {
   "type": "Feature",
   "geometry": {
    "type": "Point",
    "coordinates": [
     14.414435,
     50.08368
    ]
   },
   "properties": {
    "id": "ipr-kultkkc-centra-3990",
    "name": "Prostor 90",
    "type": "komunitní centrum pro seniory",
    "address": null,
    "cooling": "ac",
    "tier": "B",
    "source": "IPR Praha – ÚAP (KULTKKC)"
   }
  },
  {
   "type": "Feature",
   "geometry": {
    "type": "Point",
    "coordinates": [
     14.493593,
     50.024921
    ]
   },
   "properties": {
    "id": "ipr-kultkkc-centra-4073",
    "name": "Kulturní centrum Zahrada",
    "type": "kulturní centrum",
    "address": null,
    "cooling": "ac",
    "tier": "B",
    "source": "IPR Praha – ÚAP (KULTKKC)"
   }
  },
  {
   "type": "Feature",
   "geometry": {
    "type": "Point",
    "coordinates": [
     14.326764,
     50.052409
    ]
   },
   "properties": {
    "id": "ipr-kultkkc-centra-3932",
    "name": "Spolkový dům",
    "type": "kulturní dům",
    "address": null,
    "cooling": "ac",
    "tier": "B",
    "source": "IPR Praha – ÚAP (KULTKKC)"
   }
  },
  {
   "type": "Feature",
   "geometry": {
    "type": "Point",
    "coordinates": [
     14.392633,
     50.110532
    ]
   },
   "properties": {
    "id": "ipr-kultkkc-centra-3999",
    "name": "Dům dětí a mládeže hlavního města Prahy",
    "type": "dům dětí a mládeže",
    "address": null,
    "cooling": "ac",
    "tier": "B",
    "source": "IPR Praha – ÚAP (KULTKKC)"
   }
  },
  {
   "type": "Feature",
   "geometry": {
    "type": "Point",
    "coordinates": [
     14.419873,
     50.100173
    ]
   },
   "properties": {
    "id": "ipr-kultkkc-centra-3877",
    "name": "Dům dětí a mládeže Praha 7",
    "type": "dům dětí a mládeže",
    "address": null,
    "cooling": "ac",
    "tier": "B",
    "source": "IPR Praha – ÚAP (KULTKKC)"
   }
  },
  {
   "type": "Feature",
   "geometry": {
    "type": "Point",
    "coordinates": [
     14.384397,
     49.969763
    ]
   },
   "properties": {
    "id": "ipr-kultkkc-centra-4114",
    "name": "Pexeso, Kulturně komunitní centrum Zbraslav",
    "type": "kulturně komunitní centrum",
    "address": null,
    "cooling": "ac",
    "tier": "B",
    "source": "IPR Praha – ÚAP (KULTKKC)"
   }
  },
  {
   "type": "Feature",
   "geometry": {
    "type": "Point",
    "coordinates": [
     14.420423,
     50.059105
    ]
   },
   "properties": {
    "id": "ipr-kultkkc-centra-4056",
    "name": "Sousedský klub Podolská",
    "type": "klub seniorů",
    "address": null,
    "cooling": "ac",
    "tier": "B",
    "source": "IPR Praha – ÚAP (KULTKKC)"
   }
  },
  {
   "type": "Feature",
   "geometry": {
    "type": "Point",
    "coordinates": [
     14.594474,
     50.03657
    ]
   },
   "properties": {
    "id": "ipr-kultkkc-centra-4044",
    "name": "Dům dětí a mládeže Praha 10 – Dům UM a klub 803 Uhříněves",
    "type": "dům dětí a mládeže, nízkoprahový klub",
    "address": null,
    "cooling": "ac",
    "tier": "B",
    "source": "IPR Praha – ÚAP (KULTKKC)"
   }
  },
  {
   "type": "Feature",
   "geometry": {
    "type": "Point",
    "coordinates": [
     14.402691,
     50.099074
    ]
   },
   "properties": {
    "id": "ipr-kultkkc-centra-3893",
    "name": "Zasekávák",
    "type": "kulturní centrum",
    "address": null,
    "cooling": "ac",
    "tier": "B",
    "source": "IPR Praha – ÚAP (KULTKKC)"
   }
  },
  {
   "type": "Feature",
   "geometry": {
    "type": "Point",
    "coordinates": [
     14.350673,
     50.093365
    ]
   },
   "properties": {
    "id": "ipr-kultkkc-centra-4120",
    "name": "KC Zámek Veleslavín",
    "type": "komunitní centrum",
    "address": null,
    "cooling": "ac",
    "tier": "B",
    "source": "IPR Praha – ÚAP (KULTKKC)"
   }
  },
  {
   "type": "Feature",
   "geometry": {
    "type": "Point",
    "coordinates": [
     14.512327,
     50.012861
    ]
   },
   "properties": {
    "id": "ipr-kultkkc-centra-4047",
    "name": "Sbor církve bratrské Šeberov",
    "type": "sborový dům",
    "address": null,
    "cooling": "ac",
    "tier": "B",
    "source": "IPR Praha – ÚAP (KULTKKC)"
   }
  },
  {
   "type": "Feature",
   "geometry": {
    "type": "Point",
    "coordinates": [
     14.295117,
     50.068058
    ]
   },
   "properties": {
    "id": "ipr-kultkkc-centra-4007",
    "name": "Sokolovna Řepy",
    "type": "kulturní centrum",
    "address": null,
    "cooling": "ac",
    "tier": "B",
    "source": "IPR Praha – ÚAP (KULTKKC)"
   }
  },
  {
   "type": "Feature",
   "geometry": {
    "type": "Point",
    "coordinates": [
     14.446692,
     50.015145
    ]
   },
   "properties": {
    "id": "ipr-kultkkc-centra-4032",
    "name": "MC Balonek",
    "type": "mateřské centrum",
    "address": null,
    "cooling": "ac",
    "tier": "B",
    "source": "IPR Praha – ÚAP (KULTKKC)"
   }
  },
  {
   "type": "Feature",
   "geometry": {
    "type": "Point",
    "coordinates": [
     14.435975,
     50.023429
    ]
   },
   "properties": {
    "id": "ipr-kultkkc-centra-3987",
    "name": "Sousedský klub Jílovská",
    "type": "klub seniorů",
    "address": null,
    "cooling": "ac",
    "tier": "B",
    "source": "IPR Praha – ÚAP (KULTKKC)"
   }
  },
  {
   "type": "Feature",
   "geometry": {
    "type": "Point",
    "coordinates": [
     14.488516,
     50.106957
    ]
   },
   "properties": {
    "id": "ipr-kultkkc-centra-4125",
    "name": "Divadlo Gong",
    "type": "kulturní a vzdělávací společenské centrum",
    "address": null,
    "cooling": "ac",
    "tier": "B",
    "source": "IPR Praha – ÚAP (KULTKKC)"
   }
  },
  {
   "type": "Feature",
   "geometry": {
    "type": "Point",
    "coordinates": [
     14.547051,
     50.10639
    ]
   },
   "properties": {
    "id": "ipr-kultkkc-centra-4138",
    "name": "KC Kardašovská",
    "type": "volnočasové centrum",
    "address": null,
    "cooling": "ac",
    "tier": "B",
    "source": "IPR Praha – ÚAP (KULTKKC)"
   }
  },
  {
   "type": "Feature",
   "geometry": {
    "type": "Point",
    "coordinates": [
     14.441135,
     50.087186
    ]
   },
   "properties": {
    "id": "ipr-kultkkc-centra-3964",
    "name": "Čítárna Unijazz",
    "type": "kulturní centrum",
    "address": null,
    "cooling": "ac",
    "tier": "B",
    "source": "IPR Praha – ÚAP (KULTKKC)"
   }
  },
  {
   "type": "Feature",
   "geometry": {
    "type": "Point",
    "coordinates": [
     14.415362,
     50.133586
    ]
   },
   "properties": {
    "id": "ipr-kultkkc-centra-4116",
    "name": "Bohnické komunitní centrum na Statku Vraných",
    "type": "komunitní centrum",
    "address": null,
    "cooling": "ac",
    "tier": "B",
    "source": "IPR Praha – ÚAP (KULTKKC)"
   }
  },
  {
   "type": "Feature",
   "geometry": {
    "type": "Point",
    "coordinates": [
     14.578517,
     50.088815
    ]
   },
   "properties": {
    "id": "ipr-kultkkc-centra-4020",
    "name": "Kulturní a informační centrum Oáza",
    "type": "kulturní centrum",
    "address": null,
    "cooling": "ac",
    "tier": "B",
    "source": "IPR Praha – ÚAP (KULTKKC)"
   }
  },
  {
   "type": "Feature",
   "geometry": {
    "type": "Point",
    "coordinates": [
     14.415711,
     50.001549
    ]
   },
   "properties": {
    "id": "ipr-kultkkc-centra-4129",
    "name": "NA Konci Ulice",
    "type": "komunitní dílna",
    "address": null,
    "cooling": "ac",
    "tier": "B",
    "source": "IPR Praha – ÚAP (KULTKKC)"
   }
  },
  {
   "type": "Feature",
   "geometry": {
    "type": "Point",
    "coordinates": [
     14.491856,
     50.078472
    ]
   },
   "properties": {
    "id": "ipr-kultkkc-centra-3937",
    "name": "Dům dětí a mládeže Praha 10 – Dům UM",
    "type": "dům dětí a mládeže",
    "address": null,
    "cooling": "ac",
    "tier": "B",
    "source": "IPR Praha – ÚAP (KULTKKC)"
   }
  },
  {
   "type": "Feature",
   "geometry": {
    "type": "Point",
    "coordinates": [
     14.416024,
     50.080425
    ]
   },
   "properties": {
    "id": "ipr-kultkkc-centra-3915",
    "name": "Poslední vlastenecká divadelní",
    "type": "klub seniorů",
    "address": null,
    "cooling": "ac",
    "tier": "B",
    "source": "IPR Praha – ÚAP (KULTKKC)"
   }
  },
  {
   "type": "Feature",
   "geometry": {
    "type": "Point",
    "coordinates": [
     14.364375,
     50.086542
    ]
   },
   "properties": {
    "id": "ipr-kultkkc-centra-3889",
    "name": "KC Nesedím, sousedím",
    "type": "komunitní centrum",
    "address": null,
    "cooling": "ac",
    "tier": "B",
    "source": "IPR Praha – ÚAP (KULTKKC)"
   }
  },
  {
   "type": "Feature",
   "geometry": {
    "type": "Point",
    "coordinates": [
     14.402896,
     50.067386
    ]
   },
   "properties": {
    "id": "ipr-kultkkc-centra-3996",
    "name": "Radlická kulturní sportovna",
    "type": "kulturní centrum",
    "address": null,
    "cooling": "ac",
    "tier": "B",
    "source": "IPR Praha – ÚAP (KULTKKC)"
   }
  },
  {
   "type": "Feature",
   "geometry": {
    "type": "Point",
    "coordinates": [
     14.481856,
     50.094482
    ]
   },
   "properties": {
    "id": "ipr-kultkkc-centra-3970",
    "name": "Dům dětí a mládeže Praha 3 – Ulita",
    "type": "dům dětí a mládeže, nízkoprahový klub",
    "address": null,
    "cooling": "ac",
    "tier": "B",
    "source": "IPR Praha – ÚAP (KULTKKC)"
   }
  },
  {
   "type": "Feature",
   "geometry": {
    "type": "Point",
    "coordinates": [
     14.379679,
     50.057114
    ]
   },
   "properties": {
    "id": "ipr-kultkkc-centra-4095",
    "name": "Komunitní centrum Konzerva",
    "type": "sborový dům",
    "address": null,
    "cooling": "ac",
    "tier": "B",
    "source": "IPR Praha – ÚAP (KULTKKC)"
   }
  },
  {
   "type": "Feature",
   "geometry": {
    "type": "Point",
    "coordinates": [
     14.458942,
     50.050137
    ]
   },
   "properties": {
    "id": "ipr-kultkkc-centra-3908",
    "name": "DobroKlub Michelská",
    "type": "klub seniorů",
    "address": null,
    "cooling": "ac",
    "tier": "B",
    "source": "IPR Praha – ÚAP (KULTKKC)"
   }
  },
  {
   "type": "Feature",
   "geometry": {
    "type": "Point",
    "coordinates": [
     14.446782,
     50.140214
    ]
   },
   "properties": {
    "id": "ipr-kultkkc-centra-3853",
    "name": "Chabry hub",
    "type": "komunitní centrum",
    "address": null,
    "cooling": "ac",
    "tier": "B",
    "source": "IPR Praha – ÚAP (KULTKKC)"
   }
  },
  {
   "type": "Feature",
   "geometry": {
    "type": "Point",
    "coordinates": [
     14.443257,
     50.062007
    ]
   },
   "properties": {
    "id": "ipr-kultkkc-centra-3914",
    "name": "Sousedský klub Svatoslavova",
    "type": "klub seniorů",
    "address": null,
    "cooling": "ac",
    "tier": "B",
    "source": "IPR Praha – ÚAP (KULTKKC)"
   }
  },
  {
   "type": "Feature",
   "geometry": {
    "type": "Point",
    "coordinates": [
     14.324254,
     50.043095
    ]
   },
   "properties": {
    "id": "ipr-kultkkc-centra-3922",
    "name": "Dům dětí a mládeže Stodůlky",
    "type": "dům dětí a mládeže",
    "address": null,
    "cooling": "ac",
    "tier": "B",
    "source": "IPR Praha – ÚAP (KULTKKC)"
   }
  },
  {
   "type": "Feature",
   "geometry": {
    "type": "Point",
    "coordinates": [
     14.321251,
     50.045196
    ]
   },
   "properties": {
    "id": "ipr-kultkkc-centra-3955",
    "name": "Sbor Církve bratrské Praha 13 – Stodůlky (Třináctka)",
    "type": "sborový dům",
    "address": null,
    "cooling": "ac",
    "tier": "B",
    "source": "IPR Praha – ÚAP (KULTKKC)"
   }
  },
  {
   "type": "Feature",
   "geometry": {
    "type": "Point",
    "coordinates": [
     14.453886,
     50.068995
    ]
   },
   "properties": {
    "id": "ipr-kultkkc-centra-3954",
    "name": "Komunitní centrum MANA",
    "type": "komunitní centrum",
    "address": null,
    "cooling": "ac",
    "tier": "B",
    "source": "IPR Praha – ÚAP (KULTKKC)"
   }
  },
  {
   "type": "Feature",
   "geometry": {
    "type": "Point",
    "coordinates": [
     14.474536,
     50.127897
    ]
   },
   "properties": {
    "id": "ipr-kultkkc-centra-3854",
    "name": "Rodinný klub Ďáblík",
    "type": "rodinný klub",
    "address": null,
    "cooling": "ac",
    "tier": "B",
    "source": "IPR Praha – ÚAP (KULTKKC)"
   }
  },
  {
   "type": "Feature",
   "geometry": {
    "type": "Point",
    "coordinates": [
     14.405672,
     50.071717
    ]
   },
   "properties": {
    "id": "ipr-kultkkc-centra-4100",
    "name": "Stará škola, Centrum Elpida – Bělidlo",
    "type": "klub seniorů",
    "address": null,
    "cooling": "ac",
    "tier": "B",
    "source": "IPR Praha – ÚAP (KULTKKC)"
   }
  },
  {
   "type": "Feature",
   "geometry": {
    "type": "Point",
    "coordinates": [
     14.583098,
     50.106444
    ]
   },
   "properties": {
    "id": "ipr-kultkkc-centra-3863",
    "name": "ROMPRAHA",
    "type": "komunitní centrum",
    "address": null,
    "cooling": "ac",
    "tier": "B",
    "source": "IPR Praha – ÚAP (KULTKKC)"
   }
  },
  {
   "type": "Feature",
   "geometry": {
    "type": "Point",
    "coordinates": [
     14.493126,
     50.073376
    ]
   },
   "properties": {
    "id": "ipr-kultkkc-centra-3949",
    "name": "Kulturní dům Barikádníků",
    "type": "kulturní dům",
    "address": null,
    "cooling": "ac",
    "tier": "B",
    "source": "IPR Praha – ÚAP (KULTKKC)"
   }
  },
  {
   "type": "Feature",
   "geometry": {
    "type": "Point",
    "coordinates": [
     14.385454,
     50.011957
    ]
   },
   "properties": {
    "id": "ipr-kultkkc-centra-3997",
    "name": "rodinné centrum Chuchle – Kulturní centrum K8",
    "type": "komunitní rodinné centrum",
    "address": null,
    "cooling": "ac",
    "tier": "B",
    "source": "IPR Praha – ÚAP (KULTKKC)"
   }
  },
  {
   "type": "Feature",
   "geometry": {
    "type": "Point",
    "coordinates": [
     14.502574,
     50.075824
    ]
   },
   "properties": {
    "id": "ipr-kultkkc-centra-3939",
    "name": "Prostor Prádelna",
    "type": "kulturní centrum",
    "address": null,
    "cooling": "ac",
    "tier": "B",
    "source": "IPR Praha – ÚAP (KULTKKC)"
   }
  },
  {
   "type": "Feature",
   "geometry": {
    "type": "Point",
    "coordinates": [
     14.561683,
     50.105414
    ]
   },
   "properties": {
    "id": "ipr-kultkkc-centra-3866",
    "name": "KC Motýlek",
    "type": "komunitní centrum pro děti a mládež",
    "address": null,
    "cooling": "ac",
    "tier": "B",
    "source": "IPR Praha – ÚAP (KULTKKC)"
   }
  },
  {
   "type": "Feature",
   "geometry": {
    "type": "Point",
    "coordinates": [
     14.412914,
     49.987283
    ]
   },
   "properties": {
    "id": "ipr-kultkkc-centra-4128",
    "name": "Komůrka",
    "type": "rodinné centrum",
    "address": null,
    "cooling": "ac",
    "tier": "B",
    "source": "IPR Praha – ÚAP (KULTKKC)"
   }
  },
  {
   "type": "Feature",
   "geometry": {
    "type": "Point",
    "coordinates": [
     14.450323,
     50.086873
    ]
   },
   "properties": {
    "id": "ipr-kultkkc-centra-3989",
    "name": "Komunitní centrum Husitská",
    "type": "komunitní centrum",
    "address": null,
    "cooling": "ac",
    "tier": "B",
    "source": "IPR Praha – ÚAP (KULTKKC)"
   }
  },
  {
   "type": "Feature",
   "geometry": {
    "type": "Point",
    "coordinates": [
     14.438381,
     50.045876
    ]
   },
   "properties": {
    "id": "ipr-kultkkc-centra-4066",
    "name": "Dům dětí a mládeže Praha 4 – Hobby centrum 4",
    "type": "dům dětí a mládeže",
    "address": null,
    "cooling": "ac",
    "tier": "B",
    "source": "IPR Praha – ÚAP (KULTKKC)"
   }
  },
  {
   "type": "Feature",
   "geometry": {
    "type": "Point",
    "coordinates": [
     14.51343,
     50.150978
    ]
   },
   "properties": {
    "id": "ipr-kultkkc-centra-3855",
    "name": "Dům dětí a mládeže Praha 9",
    "type": "dům dětí a mládeže",
    "address": null,
    "cooling": "ac",
    "tier": "B",
    "source": "IPR Praha – ÚAP (KULTKKC)"
   }
  },
  {
   "type": "Feature",
   "geometry": {
    "type": "Point",
    "coordinates": [
     14.443414,
     50.076353
    ]
   },
   "properties": {
    "id": "ipr-kultkkc-centra-3959",
    "name": "Dům dětí a mládeže Praha 2",
    "type": "dům dětí a mládeže",
    "address": null,
    "cooling": "ac",
    "tier": "B",
    "source": "IPR Praha – ÚAP (KULTKKC)"
   }
  },
  {
   "type": "Feature",
   "geometry": {
    "type": "Point",
    "coordinates": [
     14.41505,
     50.112392
    ]
   },
   "properties": {
    "id": "ipr-kultkkc-centra-4142",
    "name": "MetroFarm",
    "type": "komunitní zahrada",
    "address": null,
    "cooling": "ac",
    "tier": "B",
    "source": "IPR Praha – ÚAP (KULTKKC)"
   }
  },
  {
   "type": "Feature",
   "geometry": {
    "type": "Point",
    "coordinates": [
     14.377178,
     50.091012
    ]
   },
   "properties": {
    "id": "ipr-kultkkc-centra-4122",
    "name": "Střešovický Oříšek",
    "type": "komunitní centrum",
    "address": null,
    "cooling": "ac",
    "tier": "B",
    "source": "IPR Praha – ÚAP (KULTKKC)"
   }
  },
  {
   "type": "Feature",
   "geometry": {
    "type": "Point",
    "coordinates": [
     14.397307,
     50.04066
    ]
   },
   "properties": {
    "id": "ipr-kultkkc-centra-4091",
    "name": "KC Konírna",
    "type": "komunitní centrum",
    "address": null,
    "cooling": "ac",
    "tier": "B",
    "source": "IPR Praha – ÚAP (KULTKKC)"
   }
  },
  {
   "type": "Feature",
   "geometry": {
    "type": "Point",
    "coordinates": [
     14.514215,
     50.023413
    ]
   },
   "properties": {
    "id": "ipr-kultkkc-centra-4078",
    "name": "Akademie Vitae & základní umělecká škola a středisko volného času Praha, s.r.o.",
    "type": "dům dětí a mládeže",
    "address": null,
    "cooling": "ac",
    "tier": "B",
    "source": "IPR Praha – ÚAP (KULTKKC)"
   }
  },
  {
   "type": "Feature",
   "geometry": {
    "type": "Point",
    "coordinates": [
     14.434026,
     50.07457
    ]
   },
   "properties": {
    "id": "ipr-kultkkc-centra-3945",
    "name": "Komunitní centrum sv. Anežky",
    "type": "komunitní centrum",
    "address": null,
    "cooling": "ac",
    "tier": "B",
    "source": "IPR Praha – ÚAP (KULTKKC)"
   }
  },
  {
   "type": "Feature",
   "geometry": {
    "type": "Point",
    "coordinates": [
     14.495715,
     50.12525
    ]
   },
   "properties": {
    "id": "ipr-kultkkc-centra-3941",
    "name": "Klub Harfica a Kulturně aktivizační centurm pro seniory",
    "type": "nízkoprahový klub pro děti a mládež, klub seniorů",
    "address": null,
    "cooling": "ac",
    "tier": "B",
    "source": "IPR Praha – ÚAP (KULTKKC)"
   }
  },
  {
   "type": "Feature",
   "geometry": {
    "type": "Point",
    "coordinates": [
     14.379671,
     50.135989
    ]
   },
   "properties": {
    "id": "ipr-kultkkc-centra-3846",
    "name": "Komunitní centrum Půda",
    "type": "komunitní centrum",
    "address": null,
    "cooling": "ac",
    "tier": "B",
    "source": "IPR Praha – ÚAP (KULTKKC)"
   }
  },
  {
   "type": "Feature",
   "geometry": {
    "type": "Point",
    "coordinates": [
     14.400134,
     50.075274
    ]
   },
   "properties": {
    "id": "ipr-kultkkc-centra-4098",
    "name": "Stanice přírodovědců DDM hl. m. Prahy",
    "type": "dům dětí a mládeže",
    "address": null,
    "cooling": "ac",
    "tier": "B",
    "source": "IPR Praha – ÚAP (KULTKKC)"
   }
  },
  {
   "type": "Feature",
   "geometry": {
    "type": "Point",
    "coordinates": [
     14.413452,
     50.01233
    ]
   },
   "properties": {
    "id": "ipr-kultkkc-centra-4085",
    "name": "Dům dětí a mládeže Modřany",
    "type": "dům dětí a mládeže",
    "address": null,
    "cooling": "ac",
    "tier": "B",
    "source": "IPR Praha – ÚAP (KULTKKC)"
   }
  },
  {
   "type": "Feature",
   "geometry": {
    "type": "Point",
    "coordinates": [
     14.405353,
     50.124687
    ]
   },
   "properties": {
    "id": "ipr-kultkkc-centra-3986",
    "name": "KC L.E.S.",
    "type": "komunitní centrum",
    "address": null,
    "cooling": "ac",
    "tier": "B",
    "source": "IPR Praha – ÚAP (KULTKKC)"
   }
  },
  {
   "type": "Feature",
   "geometry": {
    "type": "Point",
    "coordinates": [
     14.451931,
     50.069143
    ]
   },
   "properties": {
    "id": "ipr-kultkkc-centra-3952",
    "name": "Farnost Vršovice",
    "type": "farní centrum",
    "address": null,
    "cooling": "ac",
    "tier": "B",
    "source": "IPR Praha – ÚAP (KULTKKC)"
   }
  },
  {
   "type": "Feature",
   "geometry": {
    "type": "Point",
    "coordinates": [
     14.403677,
     50.072971
    ]
   },
   "properties": {
    "id": "ipr-kultkkc-centra-4099",
    "name": "Dům dětí a mládeže Praha 5",
    "type": "dům dětí a mládeže",
    "address": null,
    "cooling": "ac",
    "tier": "B",
    "source": "IPR Praha – ÚAP (KULTKKC)"
   }
  },
  {
   "type": "Feature",
   "geometry": {
    "type": "Point",
    "coordinates": [
     14.516106,
     50.027487
    ]
   },
   "properties": {
    "id": "ipr-kultkkc-centra-4069",
    "name": "Mezi domy",
    "type": "komunitní centrum",
    "address": null,
    "cooling": "ac",
    "tier": "B",
    "source": "IPR Praha – ÚAP (KULTKKC)"
   }
  },
  {
   "type": "Feature",
   "geometry": {
    "type": "Point",
    "coordinates": [
     14.420534,
     50.089035
    ]
   },
   "properties": {
    "id": "ipr-kultkkc-centra-4058",
    "name": "Farní sbor Českobratrské církve evangelické U Salvátora",
    "type": "sborový dům",
    "address": null,
    "cooling": "ac",
    "tier": "B",
    "source": "IPR Praha – ÚAP (KULTKKC)"
   }
  },
  {
   "type": "Feature",
   "geometry": {
    "type": "Point",
    "coordinates": [
     14.409767,
     50.062755
    ]
   },
   "properties": {
    "id": "ipr-kultkkc-centra-4106",
    "name": "Komunitní centrum Louka",
    "type": "klub seniorů",
    "address": null,
    "cooling": "ac",
    "tier": "B",
    "source": "IPR Praha – ÚAP (KULTKKC)"
   }
  },
  {
   "type": "Feature",
   "geometry": {
    "type": "Point",
    "coordinates": [
     14.512873,
     50.104745
    ]
   },
   "properties": {
    "id": "ipr-kultkkc-centra-4123",
    "name": "Edu Bubo Klub",
    "type": "volnočasové centrum",
    "address": null,
    "cooling": "ac",
    "tier": "B",
    "source": "IPR Praha – ÚAP (KULTKKC)"
   }
  },
  {
   "type": "Feature",
   "geometry": {
    "type": "Point",
    "coordinates": [
     14.427794,
     50.024934
    ]
   },
   "properties": {
    "id": "ipr-kultkkc-centra-4136",
    "name": "Žít spolu - Údolní, komunitní centrum",
    "type": "rodinné/komunitní centrum",
    "address": null,
    "cooling": "ac",
    "tier": "B",
    "source": "IPR Praha – ÚAP (KULTKKC)"
   }
  },
  {
   "type": "Feature",
   "geometry": {
    "type": "Point",
    "coordinates": [
     14.605624,
     50.029198
    ]
   },
   "properties": {
    "id": "ipr-kultkkc-centra-4131",
    "name": "Divadlo U22, dům UM",
    "type": "divadlo",
    "address": null,
    "cooling": "ac",
    "tier": "B",
    "source": "IPR Praha – ÚAP (KULTKKC)"
   }
  },
  {
   "type": "Feature",
   "geometry": {
    "type": "Point",
    "coordinates": [
     14.559353,
     50.061459
    ]
   },
   "properties": {
    "id": "ipr-kultkkc-centra-3897",
    "name": "KC Dolní Měcholupy",
    "type": "komunitní centrum",
    "address": null,
    "cooling": "ac",
    "tier": "B",
    "source": "IPR Praha – ÚAP (KULTKKC)"
   }
  },
  {
   "type": "Feature",
   "geometry": {
    "type": "Point",
    "coordinates": [
     14.301981,
     50.090869
    ]
   },
   "properties": {
    "id": "ipr-kultkkc-centra-4119",
    "name": "KC Dědina",
    "type": "komunitní centrum",
    "address": null,
    "cooling": "ac",
    "tier": "B",
    "source": "IPR Praha – ÚAP (KULTKKC)"
   }
  },
  {
   "type": "Feature",
   "geometry": {
    "type": "Point",
    "coordinates": [
     14.404491,
     50.107239
    ]
   },
   "properties": {
    "id": "ipr-kultkkc-centra-3880",
    "name": "Stanice 6",
    "type": "volnočasové centrum",
    "address": null,
    "cooling": "ac",
    "tier": "B",
    "source": "IPR Praha – ÚAP (KULTKKC)"
   }
  },
  {
   "type": "Feature",
   "geometry": {
    "type": "Point",
    "coordinates": [
     14.39939,
     50.104734
    ]
   },
   "properties": {
    "id": "ipr-kultkkc-centra-3876",
    "name": "Centrum inspirace a tvořivosti",
    "type": "rodinné a komunitní centrum",
    "address": null,
    "cooling": "ac",
    "tier": "B",
    "source": "IPR Praha – ÚAP (KULTKKC)"
   }
  },
  {
   "type": "Feature",
   "geometry": {
    "type": "Point",
    "coordinates": [
     14.580228,
     50.104272
    ]
   },
   "properties": {
    "id": "ipr-kultkkc-centra-3862",
    "name": "Kluby Jahoda a Džagoda",
    "type": "nízkoprahový klub pro děti a mládež",
    "address": null,
    "cooling": "ac",
    "tier": "B",
    "source": "IPR Praha – ÚAP (KULTKKC)"
   }
  },
  {
   "type": "Feature",
   "geometry": {
    "type": "Point",
    "coordinates": [
     14.401965,
     50.102123
    ]
   },
   "properties": {
    "id": "ipr-kultkkc-centra-3875",
    "name": "Klub Za školou a Kulturně komunitní centrum Senior fitnes",
    "type": "kulturní a kulturně komunitní centrum",
    "address": null,
    "cooling": "ac",
    "tier": "B",
    "source": "IPR Praha – ÚAP (KULTKKC)"
   }
  },
  {
   "type": "Feature",
   "geometry": {
    "type": "Point",
    "coordinates": [
     14.523871,
     50.030016
    ]
   },
   "properties": {
    "id": "ipr-kultkkc-centra-4079",
    "name": "Kaple Blahoslavené Matky Terezy – Komunitní centrum Matky Terezy (kaple sv. Terezie z Kalkaty)",
    "type": "komunitní centrum",
    "address": null,
    "cooling": "ac",
    "tier": "B",
    "source": "IPR Praha – ÚAP (KULTKKC)"
   }
  },
  {
   "type": "Feature",
   "geometry": {
    "type": "Point",
    "coordinates": [
     14.475224,
     50.046965
    ]
   },
   "properties": {
    "id": "ipr-kultkkc-centra-3988",
    "name": "Klub seniorů Roztylské náměstí",
    "type": "klub seniorů",
    "address": null,
    "cooling": "ac",
    "tier": "B",
    "source": "IPR Praha – ÚAP (KULTKKC)"
   }
  },
  {
   "type": "Feature",
   "geometry": {
    "type": "Point",
    "coordinates": [
     14.599427,
     50.112081
    ]
   },
   "properties": {
    "id": "ipr-kultkkc-centra-4025",
    "name": "Mumraj rodinné a komunitní centrum",
    "type": "rodinné a komunitní centrum",
    "address": null,
    "cooling": "ac",
    "tier": "B",
    "source": "IPR Praha – ÚAP (KULTKKC)"
   }
  },
  {
   "type": "Feature",
   "geometry": {
    "type": "Point",
    "coordinates": [
     14.382614,
     50.064804
    ]
   },
   "properties": {
    "id": "ipr-kultkkc-centra-4111",
    "name": "Rodinné centrum MAM Prostor",
    "type": "rodinné centrum",
    "address": null,
    "cooling": "ac",
    "tier": "B",
    "source": "IPR Praha – ÚAP (KULTKKC)"
   }
  },
  {
   "type": "Feature",
   "geometry": {
    "type": "Point",
    "coordinates": [
     14.430043,
     50.091214
    ]
   },
   "properties": {
    "id": "ipr-kultkkc-centra-3931",
    "name": "Sbor Církve bratrské Praha 1 – Soukenická",
    "type": "sborový dům",
    "address": null,
    "cooling": "ac",
    "tier": "B",
    "source": "IPR Praha – ÚAP (KULTKKC)"
   }
  },
  {
   "type": "Feature",
   "geometry": {
    "type": "Point",
    "coordinates": [
     14.452997,
     50.103685
    ]
   },
   "properties": {
    "id": "ipr-kultkkc-centra-3894",
    "name": "Kulturní zařízení Domovina",
    "type": "kulturní zařízení",
    "address": null,
    "cooling": "ac",
    "tier": "B",
    "source": "IPR Praha – ÚAP (KULTKKC)"
   }
  },
  {
   "type": "Feature",
   "geometry": {
    "type": "Point",
    "coordinates": [
     14.418651,
     50.066535
    ]
   },
   "properties": {
    "id": "ipr-kultkkc-centra-4034",
    "name": "Dům dětí a mládeže Praha 2",
    "type": "dům dětí a mládeže",
    "address": null,
    "cooling": "ac",
    "tier": "B",
    "source": "IPR Praha – ÚAP (KULTKKC)"
   }
  },
  {
   "type": "Feature",
   "geometry": {
    "type": "Point",
    "coordinates": [
     14.454254,
     50.108605
    ]
   },
   "properties": {
    "id": "ipr-kultkkc-centra-3891",
    "name": "Přístav 7",
    "type": "komunitní centrum",
    "address": null,
    "cooling": "ac",
    "tier": "B",
    "source": "IPR Praha – ÚAP (KULTKKC)"
   }
  },
  {
   "type": "Feature",
   "geometry": {
    "type": "Point",
    "coordinates": [
     14.461115,
     50.087941
    ]
   },
   "properties": {
    "id": "ipr-kultkkc-centra-3978",
    "name": "Komunitní centrum Žižkostel",
    "type": "komunitní centrum",
    "address": null,
    "cooling": "ac",
    "tier": "B",
    "source": "IPR Praha – ÚAP (KULTKKC)"
   }
  },
  {
   "type": "Feature",
   "geometry": {
    "type": "Point",
    "coordinates": [
     14.595622,
     50.111304
    ]
   },
   "properties": {
    "id": "ipr-kultkkc-centra-3982",
    "name": "Chvalský zámek",
    "type": "kulturní centrum",
    "address": null,
    "cooling": "ac",
    "tier": "B",
    "source": "IPR Praha – ÚAP (KULTKKC)"
   }
  },
  {
   "type": "Feature",
   "geometry": {
    "type": "Point",
    "coordinates": [
     14.39584,
     50.089144
    ]
   },
   "properties": {
    "id": "ipr-kultkkc-centra-3896",
    "name": "Klášter bosých karmeliánů Praha (Fortna)",
    "type": "komunitní centrum",
    "address": null,
    "cooling": "ac",
    "tier": "B",
    "source": "IPR Praha – ÚAP (KULTKKC)"
   }
  },
  {
   "type": "Feature",
   "geometry": {
    "type": "Point",
    "coordinates": [
     14.368893,
     50.070914
    ]
   },
   "properties": {
    "id": "ipr-kultkkc-centra-4104",
    "name": "Buďánka – ostrov ve městě",
    "type": "komunitní centrum",
    "address": null,
    "cooling": "ac",
    "tier": "B",
    "source": "IPR Praha – ÚAP (KULTKKC)"
   }
  },
  {
   "type": "Feature",
   "geometry": {
    "type": "Point",
    "coordinates": [
     14.372968,
     50.030062
    ]
   },
   "properties": {
    "id": "ipr-kultkkc-centra-4097",
    "name": "Kulturní a rodinné centrum Barrandov z.s.",
    "type": "kulturní a rodinné centrum",
    "address": null,
    "cooling": "ac",
    "tier": "B",
    "source": "IPR Praha – ÚAP (KULTKKC)"
   }
  },
  {
   "type": "Feature",
   "geometry": {
    "type": "Point",
    "coordinates": [
     14.443717,
     50.014516
    ]
   },
   "properties": {
    "id": "ipr-kultkkc-centra-4139",
    "name": "Komunitní centrum Cílkova",
    "type": "komunitní centrum",
    "address": null,
    "cooling": "ac",
    "tier": "B",
    "source": "IPR Praha – ÚAP (KULTKKC)"
   }
  },
  {
   "type": "Feature",
   "geometry": {
    "type": "Point",
    "coordinates": [
     14.616904,
     50.110872
    ]
   },
   "properties": {
    "id": "ipr-kultkkc-centra-4023",
    "name": "Dům dětí a mládeže, Praha – Horní Počernice, Ratibořická 1899",
    "type": "dům dětí a mládeže",
    "address": null,
    "cooling": "ac",
    "tier": "B",
    "source": "IPR Praha – ÚAP (KULTKKC)"
   }
  },
  {
   "type": "Feature",
   "geometry": {
    "type": "Point",
    "coordinates": [
     14.62762,
     50.010782
    ]
   },
   "properties": {
    "id": "ipr-kultkkc-centra-4029",
    "name": "KC Na Půdě",
    "type": "komunitní centrum",
    "address": null,
    "cooling": "ac",
    "tier": "B",
    "source": "IPR Praha – ÚAP (KULTKKC)"
   }
  },
  {
   "type": "Feature",
   "geometry": {
    "type": "Point",
    "coordinates": [
     14.501525,
     50.121466
    ]
   },
   "properties": {
    "id": "ipr-kultkkc-centra-3865",
    "name": "Dům dětí a mládeže Praha 9",
    "type": "dům dětí a mládeže",
    "address": null,
    "cooling": "ac",
    "tier": "B",
    "source": "IPR Praha – ÚAP (KULTKKC)"
   }
  },
  {
   "type": "Feature",
   "geometry": {
    "type": "Point",
    "coordinates": [
     14.57728,
     50.125093
    ]
   },
   "properties": {
    "id": "ipr-kultkkc-centra-4045",
    "name": "KC Satalice",
    "type": "komunitní centrum",
    "address": null,
    "cooling": "ac",
    "tier": "B",
    "source": "IPR Praha – ÚAP (KULTKKC)"
   }
  },
  {
   "type": "Feature",
   "geometry": {
    "type": "Point",
    "coordinates": [
     14.67054,
     50.096861
    ]
   },
   "properties": {
    "id": "ipr-kultkkc-centra-4027",
    "name": "Kulturní centrum Beseda",
    "type": "kulturní centrum",
    "address": null,
    "cooling": "ac",
    "tier": "B",
    "source": "IPR Praha – ÚAP (KULTKKC)"
   }
  },
  {
   "type": "Feature",
   "geometry": {
    "type": "Point",
    "coordinates": [
     14.543994,
     50.09778
    ]
   },
   "properties": {
    "id": "ipr-kultkkc-centra-3872",
    "name": "Kulturní dům Kyje",
    "type": "kulturní dům",
    "address": null,
    "cooling": "ac",
    "tier": "B",
    "source": "IPR Praha – ÚAP (KULTKKC)"
   }
  },
  {
   "type": "Feature",
   "geometry": {
    "type": "Point",
    "coordinates": [
     14.483195,
     50.16626
    ]
   },
   "properties": {
    "id": "ipr-kultkkc-centra-4016",
    "name": "KC Béčko",
    "type": "komunitní centrum",
    "address": null,
    "cooling": "ac",
    "tier": "B",
    "source": "IPR Praha – ÚAP (KULTKKC)"
   }
  },
  {
   "type": "Feature",
   "geometry": {
    "type": "Point",
    "coordinates": [
     14.501518,
     50.121033
    ]
   },
   "properties": {
    "id": "ipr-kultkkc-centra-3867",
    "name": "KC Knoflík",
    "type": "kulturní a rodinné centrum",
    "address": null,
    "cooling": "ac",
    "tier": "B",
    "source": "IPR Praha – ÚAP (KULTKKC)"
   }
  },
  {
   "type": "Feature",
   "geometry": {
    "type": "Point",
    "coordinates": [
     14.4744,
     50.109328
    ]
   },
   "properties": {
    "id": "ipr-kultkkc-centra-3899",
    "name": "Libre – Libeňské komunitní a reuse centrum",
    "type": "komunitní centrum",
    "address": null,
    "cooling": "ac",
    "tier": "B",
    "source": "IPR Praha – ÚAP (KULTKKC)"
   }
  },
  {
   "type": "Feature",
   "geometry": {
    "type": "Point",
    "coordinates": [
     14.433502,
     50.04631
    ]
   },
   "properties": {
    "id": "ipr-kultkkc-centra-4068",
    "name": "Dům dětí a mládeže Praha 4 – Hobby centrum 4",
    "type": "dům dětí a mládeže",
    "address": null,
    "cooling": "ac",
    "tier": "B",
    "source": "IPR Praha – ÚAP (KULTKKC)"
   }
  },
  {
   "type": "Feature",
   "geometry": {
    "type": "Point",
    "coordinates": [
     14.407636,
     50.098996
    ]
   },
   "properties": {
    "id": "ipr-kultkkc-centra-3879",
    "name": "Villa Pellé",
    "type": "kulturní centrum, klub seniorů",
    "address": null,
    "cooling": "ac",
    "tier": "B",
    "source": "IPR Praha – ÚAP (KULTKKC)"
   }
  },
  {
   "type": "Feature",
   "geometry": {
    "type": "Point",
    "coordinates": [
     14.379317,
     50.071539
    ]
   },
   "properties": {
    "id": "ipr-kultkkc-centra-4102",
    "name": "Klub Klamovka DDM hl. m. Prahy",
    "type": "dům dětí a mládeže",
    "address": null,
    "cooling": "ac",
    "tier": "B",
    "source": "IPR Praha – ÚAP (KULTKKC)"
   }
  },
  {
   "type": "Feature",
   "geometry": {
    "type": "Point",
    "coordinates": [
     14.497996,
     50.057405
    ]
   },
   "properties": {
    "id": "ipr-kultkkc-centra-3965",
    "name": "Point 50+",
    "type": "klub seniorů",
    "address": null,
    "cooling": "ac",
    "tier": "B",
    "source": "IPR Praha – ÚAP (KULTKKC)"
   }
  },
  {
   "type": "Feature",
   "geometry": {
    "type": "Point",
    "coordinates": [
     14.357304,
     49.983138
    ]
   },
   "properties": {
    "id": "ipr-kultkkc-centra-4053",
    "name": "Kulturně komunitní centrum Koruna",
    "type": "kulturně komunitní centrum",
    "address": null,
    "cooling": "ac",
    "tier": "B",
    "source": "IPR Praha – ÚAP (KULTKKC)"
   }
  },
  {
   "type": "Feature",
   "geometry": {
    "type": "Point",
    "coordinates": [
     14.425478,
     50.098191
    ]
   },
   "properties": {
    "id": "ipr-kultkkc-centra-3903",
    "name": "Klub Letka",
    "type": "divadlo",
    "address": null,
    "cooling": "ac",
    "tier": "B",
    "source": "IPR Praha – ÚAP (KULTKKC)"
   }
  },
  {
   "type": "Feature",
   "geometry": {
    "type": "Point",
    "coordinates": [
     14.41727,
     50.08073
    ]
   },
   "properties": {
    "id": "ipr-kultkkc-centra-3928",
    "name": "Knihovna Václava Havla",
    "type": "kulturní centrum",
    "address": null,
    "cooling": "ac",
    "tier": "B",
    "source": "IPR Praha – ÚAP (KULTKKC)"
   }
  },
  {
   "type": "Feature",
   "geometry": {
    "type": "Point",
    "coordinates": [
     14.388581,
     50.098264
    ]
   },
   "properties": {
    "id": "ipr-kultkkc-centra-3981",
    "name": "Kulturní centrum KLUBOVNA",
    "type": "kulturní a komunitní centrum",
    "address": null,
    "cooling": "ac",
    "tier": "B",
    "source": "IPR Praha – ÚAP (KULTKKC)"
   }
  },
  {
   "type": "Feature",
   "geometry": {
    "type": "Point",
    "coordinates": [
     14.426997,
     50.059679
    ]
   },
   "properties": {
    "id": "ipr-kultkkc-centra-4137",
    "name": "Centrum aktivního stáří",
    "type": "klub seniorů",
    "address": null,
    "cooling": "ac",
    "tier": "B",
    "source": "IPR Praha – ÚAP (KULTKKC)"
   }
  },
  {
   "type": "Feature",
   "geometry": {
    "type": "Point",
    "coordinates": [
     14.328947,
     50.086727
    ]
   },
   "properties": {
    "id": "ipr-kultkkc-centra-4003",
    "name": "Farní centrum Malejov (Konvent Karmelitánů, Římskokatolická farnost u kostela sv. Fabiána a Šebestiána Praha-Liboc)",
    "type": "farní centrum",
    "address": null,
    "cooling": "ac",
    "tier": "B",
    "source": "IPR Praha – ÚAP (KULTKKC)"
   }
  },
  {
   "type": "Feature",
   "geometry": {
    "type": "Point",
    "coordinates": [
     14.403639,
     50.028271
    ]
   },
   "properties": {
    "id": "ipr-kultkkc-centra-4072",
    "name": "Dům dětí a mládeže Praha 4 – Hobby centrum 4",
    "type": "dům dětí a mládeže",
    "address": null,
    "cooling": "ac",
    "tier": "B",
    "source": "IPR Praha – ÚAP (KULTKKC)"
   }
  },
  {
   "type": "Feature",
   "geometry": {
    "type": "Point",
    "coordinates": [
     14.564654,
     50.04147
    ]
   },
   "properties": {
    "id": "ipr-kultkkc-centra-3886",
    "name": "Klub seniorů Praha 15",
    "type": "klub seniorů",
    "address": null,
    "cooling": "ac",
    "tier": "B",
    "source": "IPR Praha – ÚAP (KULTKKC)"
   }
  },
  {
   "type": "Feature",
   "geometry": {
    "type": "Point",
    "coordinates": [
     14.524533,
     50.049192
    ]
   },
   "properties": {
    "id": "ipr-kultkkc-centra-3869",
    "name": "KC Farní dvůr",
    "type": "farní centrum",
    "address": null,
    "cooling": "ac",
    "tier": "B",
    "source": "IPR Praha – ÚAP (KULTKKC)"
   }
  },
  {
   "type": "Feature",
   "geometry": {
    "type": "Point",
    "coordinates": [
     14.319109,
     50.072479
    ]
   },
   "properties": {
    "id": "ipr-kultkkc-centra-4010",
    "name": "Kulturní dům Bílá Hora",
    "type": "kulturní dům",
    "address": null,
    "cooling": "ac",
    "tier": "B",
    "source": "IPR Praha – ÚAP (KULTKKC)"
   }
  },
  {
   "type": "Feature",
   "geometry": {
    "type": "Point",
    "coordinates": [
     14.456461,
     50.08203
    ]
   },
   "properties": {
    "id": "ipr-kultkkc-centra-3967",
    "name": "Remedium",
    "type": "klub seniorů",
    "address": null,
    "cooling": "ac",
    "tier": "B",
    "source": "IPR Praha – ÚAP (KULTKKC)"
   }
  },
  {
   "type": "Feature",
   "geometry": {
    "type": "Point",
    "coordinates": [
     14.4082,
     50.083442
    ]
   },
   "properties": {
    "id": "ipr-kultkkc-centra-3918",
    "name": "Komunitní centrum Kampa",
    "type": "komunitní centrum",
    "address": null,
    "cooling": "ac",
    "tier": "B",
    "source": "IPR Praha – ÚAP (KULTKKC)"
   }
  },
  {
   "type": "Feature",
   "geometry": {
    "type": "Point",
    "coordinates": [
     14.358941,
     49.980181
    ]
   },
   "properties": {
    "id": "ipr-kultkkc-centra-4052",
    "name": "Klub Radotín",
    "type": "nízkoprahový klub pro děti a mládež",
    "address": null,
    "cooling": "ac",
    "tier": "B",
    "source": "IPR Praha – ÚAP (KULTKKC)"
   }
  },
  {
   "type": "Feature",
   "geometry": {
    "type": "Point",
    "coordinates": [
     14.511483,
     50.025329
    ]
   },
   "properties": {
    "id": "ipr-kultkkc-centra-4070",
    "name": "Dům dětí a mládeže Jižní Město",
    "type": "dům dětí a mládeže",
    "address": null,
    "cooling": "ac",
    "tier": "B",
    "source": "IPR Praha – ÚAP (KULTKKC)"
   }
  },
  {
   "type": "Feature",
   "geometry": {
    "type": "Point",
    "coordinates": [
     14.419764,
     50.07032
    ]
   },
   "properties": {
    "id": "ipr-kultkkc-centra-3926",
    "name": "Komunitní a rodinné centrum Jahoda",
    "type": "komunitní rodinné centrum",
    "address": null,
    "cooling": "ac",
    "tier": "B",
    "source": "IPR Praha – ÚAP (KULTKKC)"
   }
  },
  {
   "type": "Feature",
   "geometry": {
    "type": "Point",
    "coordinates": [
     14.402236,
     50.10821
    ]
   },
   "properties": {
    "id": "ipr-kultkkc-centra-4133",
    "name": "Komunitní zahrada Bubeneč",
    "type": "komunitní zahrada",
    "address": null,
    "cooling": "ac",
    "tier": "B",
    "source": "IPR Praha – ÚAP (KULTKKC)"
   }
  },
  {
   "type": "Feature",
   "geometry": {
    "type": "Point",
    "coordinates": [
     14.402124,
     50.11019
    ]
   },
   "properties": {
    "id": "ipr-kultkkc-centra-4134",
    "name": "Stará čistírna odpadních vod",
    "type": "kulturně komunitní centrum",
    "address": null,
    "cooling": "ac",
    "tier": "B",
    "source": "IPR Praha – ÚAP (KULTKKC)"
   }
  },
  {
   "type": "Feature",
   "geometry": {
    "type": "Point",
    "coordinates": [
     14.500534,
     50.110489
    ]
   },
   "properties": {
    "id": "ipr-kultkkc-centra-4124",
    "name": "Galerie 9",
    "type": "kreativní dílna",
    "address": null,
    "cooling": "ac",
    "tier": "B",
    "source": "IPR Praha – ÚAP (KULTKKC)"
   }
  },
  {
   "type": "Feature",
   "geometry": {
    "type": "Point",
    "coordinates": [
     14.448283,
     50.040811
    ]
   },
   "properties": {
    "id": "ipr-kultkkc-centra-4060",
    "name": "Farní sál Habrovka (u kostela Svatého Františka z Assisi)",
    "type": "společenský sál",
    "address": null,
    "cooling": "ac",
    "tier": "B",
    "source": "IPR Praha – ÚAP (KULTKKC)"
   }
  },
  {
   "type": "Feature",
   "geometry": {
    "type": "Point",
    "coordinates": [
     14.415367,
     50.040663
    ]
   },
   "properties": {
    "id": "ipr-kultkkc-centra-4075",
    "name": "Dobeška",
    "type": "kulturní dům",
    "address": null,
    "cooling": "ac",
    "tier": "B",
    "source": "IPR Praha – ÚAP (KULTKKC)"
   }
  },
  {
   "type": "Feature",
   "geometry": {
    "type": "Point",
    "coordinates": [
     14.415693,
     50.101042
    ]
   },
   "properties": {
    "id": "ipr-kultkkc-centra-3878",
    "name": "Kulturně komunitní centrum ART na Letné",
    "type": "kulturně komunitní centrum",
    "address": null,
    "cooling": "ac",
    "tier": "B",
    "source": "IPR Praha – ÚAP (KULTKKC)"
   }
  },
  {
   "type": "Feature",
   "geometry": {
    "type": "Point",
    "coordinates": [
     14.455955,
     50.087457
    ]
   },
   "properties": {
    "id": "ipr-kultkkc-centra-3977",
    "name": "Sbor Církve Bratrské Praha 3 – Žižkov",
    "type": "sborový dům",
    "address": null,
    "cooling": "ac",
    "tier": "B",
    "source": "IPR Praha – ÚAP (KULTKKC)"
   }
  },
  {
   "type": "Feature",
   "geometry": {
    "type": "Point",
    "coordinates": [
     14.431594,
     50.140809
    ]
   },
   "properties": {
    "id": "ipr-kultkkc-centra-3852",
    "name": "Rodinný klub Čimík",
    "type": "rodinný klub",
    "address": null,
    "cooling": "ac",
    "tier": "B",
    "source": "IPR Praha – ÚAP (KULTKKC)"
   }
  },
  {
   "type": "Feature",
   "geometry": {
    "type": "Point",
    "coordinates": [
     14.302699,
     50.064999
    ]
   },
   "properties": {
    "id": "ipr-kultkkc-centra-3991",
    "name": "Klub 17",
    "type": "nízkoprahový klub pro děti a mládež",
    "address": null,
    "cooling": "ac",
    "tier": "B",
    "source": "IPR Praha – ÚAP (KULTKKC)"
   }
  },
  {
   "type": "Feature",
   "geometry": {
    "type": "Point",
    "coordinates": [
     14.360813,
     50.083556
    ]
   },
   "properties": {
    "id": "ipr-kultkkc-centra-3883",
    "name": "Kaštan",
    "type": "kulturní centrum",
    "address": null,
    "cooling": "ac",
    "tier": "B",
    "source": "IPR Praha – ÚAP (KULTKKC)"
   }
  },
  {
   "type": "Feature",
   "geometry": {
    "type": "Point",
    "coordinates": [
     14.314197,
     50.011606
    ]
   },
   "properties": {
    "id": "ipr-kultkkc-centra-4040",
    "name": "Jezdecké středisko Zmrzlík DDM hl. m. Prahy",
    "type": "dům dětí a mládeže",
    "address": null,
    "cooling": "ac",
    "tier": "B",
    "source": "IPR Praha – ÚAP (KULTKKC)"
   }
  },
  {
   "type": "Feature",
   "geometry": {
    "type": "Point",
    "coordinates": [
     14.62171,
     50.114917
    ]
   },
   "properties": {
    "id": "ipr-kultkkc-centra-4026",
    "name": "Dům dětí a mládeže, Praha – Horní Počernice, Ratibořická 1899",
    "type": "kulturní středisko",
    "address": null,
    "cooling": "ac",
    "tier": "B",
    "source": "IPR Praha – ÚAP (KULTKKC)"
   }
  },
  {
   "type": "Feature",
   "geometry": {
    "type": "Point",
    "coordinates": [
     14.422281,
     50.086316
    ]
   },
   "properties": {
    "id": "ipr-kultkkc-centra-4059",
    "name": "LGBT+ komunitní centrum",
    "type": "komunitní centrum",
    "address": null,
    "cooling": "ac",
    "tier": "B",
    "source": "IPR Praha – ÚAP (KULTKKC)"
   }
  },
  {
   "type": "Feature",
   "geometry": {
    "type": "Point",
    "coordinates": [
     14.470193,
     50.107554
    ]
   },
   "properties": {
    "id": "ipr-kultkkc-centra-3913",
    "name": "Studio Alta",
    "type": "kulturní centrum",
    "address": null,
    "cooling": "ac",
    "tier": "B",
    "source": "IPR Praha – ÚAP (KULTKKC)"
   }
  },
  {
   "type": "Feature",
   "geometry": {
    "type": "Point",
    "coordinates": [
     14.390278,
     50.107804
    ]
   },
   "properties": {
    "id": "ipr-kultkkc-centra-4006",
    "name": "KC Šlejnická",
    "type": "komunitní centrum pro seniory",
    "address": null,
    "cooling": "ac",
    "tier": "B",
    "source": "IPR Praha – ÚAP (KULTKKC)"
   }
  },
  {
   "type": "Feature",
   "geometry": {
    "type": "Point",
    "coordinates": [
     14.520031,
     50.048256
    ]
   },
   "properties": {
    "id": "ipr-kultkkc-centra-4130",
    "name": "Toulcův dvůr",
    "type": "středisko ekologické výchovy",
    "address": null,
    "cooling": "ac",
    "tier": "B",
    "source": "IPR Praha – ÚAP (KULTKKC)"
   }
  },
  {
   "type": "Feature",
   "geometry": {
    "type": "Point",
    "coordinates": [
     14.429858,
     50.009696
    ]
   },
   "properties": {
    "id": "ipr-kultkkc-centra-4088",
    "name": "KC Angel",
    "type": "komunitní centrum",
    "address": null,
    "cooling": "ac",
    "tier": "B",
    "source": "IPR Praha – ÚAP (KULTKKC)"
   }
  },
  {
   "type": "Feature",
   "geometry": {
    "type": "Point",
    "coordinates": [
     14.549486,
     50.134799
    ]
   },
   "properties": {
    "id": "ipr-kultkkc-centra-3873",
    "name": "Rodinné centrum Hangár 19",
    "type": "rodinné centrum",
    "address": null,
    "cooling": "ac",
    "tier": "B",
    "source": "IPR Praha – ÚAP (KULTKKC)"
   }
  },
  {
   "type": "Feature",
   "geometry": {
    "type": "Point",
    "coordinates": [
     14.32095,
     50.048893
    ]
   },
   "properties": {
    "id": "ipr-kultkkc-centra-3992",
    "name": "Nízkoprahový klub JednaTrojka",
    "type": "nízkoprahový klub pro děti a mládež",
    "address": null,
    "cooling": "ac",
    "tier": "B",
    "source": "IPR Praha – ÚAP (KULTKKC)"
   }
  },
  {
   "type": "Feature",
   "geometry": {
    "type": "Point",
    "coordinates": [
     14.438295,
     50.075186
    ]
   },
   "properties": {
    "id": "ipr-kultkkc-centra-3958",
    "name": "Arcibiskupské gymnázium",
    "type": "dům dětí a mládeže",
    "address": null,
    "cooling": "ac",
    "tier": "B",
    "source": "IPR Praha – ÚAP (KULTKKC)"
   }
  },
  {
   "type": "Feature",
   "geometry": {
    "type": "Point",
    "coordinates": [
     14.432276,
     50.072411
    ]
   },
   "properties": {
    "id": "ipr-kultkkc-centra-3943",
    "name": "Dům dětí a mládeže Praha 2",
    "type": "dům dětí a mládeže",
    "address": null,
    "cooling": "ac",
    "tier": "B",
    "source": "IPR Praha – ÚAP (KULTKKC)"
   }
  },
  {
   "type": "Feature",
   "geometry": {
    "type": "Point",
    "coordinates": [
     14.406569,
     50.06998
    ]
   },
   "properties": {
    "id": "ipr-kultkkc-centra-4113",
    "name": "Člověk v tísni",
    "type": "nízkoprahový klub pro děti a mládež",
    "address": null,
    "cooling": "ac",
    "tier": "B",
    "source": "IPR Praha – ÚAP (KULTKKC)"
   }
  },
  {
   "type": "Feature",
   "geometry": {
    "type": "Point",
    "coordinates": [
     14.425865,
     50.001733
    ]
   },
   "properties": {
    "id": "ipr-kultkkc-centra-4090",
    "name": "Dům dětí a mládeže Modřany",
    "type": "dům dětí a mládeže",
    "address": null,
    "cooling": "ac",
    "tier": "B",
    "source": "IPR Praha – ÚAP (KULTKKC)"
   }
  },
  {
   "type": "Feature",
   "geometry": {
    "type": "Point",
    "coordinates": [
     14.404647,
     50.082314
    ]
   },
   "properties": {
    "id": "ipr-kultkkc-centra-4117",
    "name": "Společenské středisko VIA",
    "type": "společenské středisko",
    "address": null,
    "cooling": "ac",
    "tier": "B",
    "source": "IPR Praha – ÚAP (KULTKKC)"
   }
  },
  {
   "type": "Feature",
   "geometry": {
    "type": "Point",
    "coordinates": [
     14.328671,
     50.086311
    ]
   },
   "properties": {
    "id": "ipr-kultkkc-centra-4135",
    "name": "Komunitní zahrada Libóza",
    "type": "komunitní zahrada",
    "address": null,
    "cooling": "ac",
    "tier": "B",
    "source": "IPR Praha – ÚAP (KULTKKC)"
   }
  },
  {
   "type": "Feature",
   "geometry": {
    "type": "Point",
    "coordinates": [
     14.419498,
     50.007056
    ]
   },
   "properties": {
    "id": "ipr-kultkkc-centra-4084",
    "name": "Kulturní centrum \"12\" – Jovkova",
    "type": "kulturní centrum",
    "address": null,
    "cooling": "ac",
    "tier": "B",
    "source": "IPR Praha – ÚAP (KULTKKC)"
   }
  },
  {
   "type": "Feature",
   "geometry": {
    "type": "Point",
    "coordinates": [
     14.511072,
     50.033955
    ]
   },
   "properties": {
    "id": "ipr-kultkkc-centra-4076",
    "name": "Dům dětí a mládeže Jižní Město",
    "type": "dům dětí a mládeže",
    "address": null,
    "cooling": "ac",
    "tier": "B",
    "source": "IPR Praha – ÚAP (KULTKKC)"
   }
  },
  {
   "type": "Feature",
   "geometry": {
    "type": "Point",
    "coordinates": [
     14.390102,
     50.073124
    ]
   },
   "properties": {
    "id": "ipr-kultkkc-centra-4107",
    "name": "Kulturní centrum Prádelna",
    "type": "komunitní centrum, klub seniorů",
    "address": null,
    "cooling": "ac",
    "tier": "B",
    "source": "IPR Praha – ÚAP (KULTKKC)"
   }
  },
  {
   "type": "Feature",
   "geometry": {
    "type": "Point",
    "coordinates": [
     14.454831,
     50.069944
    ]
   },
   "properties": {
    "id": "ipr-kultkkc-centra-4126",
    "name": "KC Vzlet",
    "type": "kulturní centrum",
    "address": null,
    "cooling": "ac",
    "tier": "B",
    "source": "IPR Praha – ÚAP (KULTKKC)"
   }
  },
  {
   "type": "Feature",
   "geometry": {
    "type": "Point",
    "coordinates": [
     14.30904,
     50.091491
    ]
   },
   "properties": {
    "id": "ipr-kultkkc-centra-4002",
    "name": "Dům dětí a mládeže Praha 6",
    "type": "dům dětí a mládeže",
    "address": null,
    "cooling": "ac",
    "tier": "B",
    "source": "IPR Praha – ÚAP (KULTKKC)"
   }
  },
  {
   "type": "Feature",
   "geometry": {
    "type": "Point",
    "coordinates": [
     14.453672,
     50.085241
    ]
   },
   "properties": {
    "id": "ipr-kultkkc-centra-3974",
    "name": "Centrum dětí a mládeže Teen Challenge Praha",
    "type": "nízkoprahový klub pro děti a mládež",
    "address": null,
    "cooling": "ac",
    "tier": "B",
    "source": "IPR Praha – ÚAP (KULTKKC)"
   }
  },
  {
   "type": "Feature",
   "geometry": {
    "type": "Point",
    "coordinates": [
     14.418992,
     50.134365
    ]
   },
   "properties": {
    "id": "ipr-kultkkc-centra-3847",
    "name": "V. Kolona",
    "type": "komunitní centrum",
    "address": null,
    "cooling": "ac",
    "tier": "B",
    "source": "IPR Praha – ÚAP (KULTKKC)"
   }
  },
  {
   "type": "Feature",
   "geometry": {
    "type": "Point",
    "coordinates": [
     14.374068,
     50.132218
    ]
   },
   "properties": {
    "id": "ipr-kultkkc-centra-3844",
    "name": "Dům dětí a mládeže Praha 6 – Suchdol",
    "type": "dům dětí a mládeže",
    "address": null,
    "cooling": "ac",
    "tier": "B",
    "source": "IPR Praha – ÚAP (KULTKKC)"
   }
  },
  {
   "type": "Feature",
   "geometry": {
    "type": "Point",
    "coordinates": [
     14.430938,
     50.076037
    ]
   },
   "properties": {
    "id": "ipr-kultkkc-centra-3944",
    "name": "Dům národnostních menšin",
    "type": "kulturní centrum",
    "address": null,
    "cooling": "ac",
    "tier": "B",
    "source": "IPR Praha – ÚAP (KULTKKC)"
   }
  },
  {
   "type": "Feature",
   "geometry": {
    "type": "Point",
    "coordinates": [
     14.470799,
     50.100255
    ]
   },
   "properties": {
    "id": "ipr-kultkkc-centra-3910",
    "name": "Klub Kontejner",
    "type": "nízkoprahový klub pro děti a mládež",
    "address": null,
    "cooling": "ac",
    "tier": "B",
    "source": "IPR Praha – ÚAP (KULTKKC)"
   }
  },
  {
   "type": "Feature",
   "geometry": {
    "type": "Point",
    "coordinates": [
     14.438168,
     50.076735
    ]
   },
   "properties": {
    "id": "ipr-kultkkc-centra-3947",
    "name": "Sbor Církve bratrské Praha 2 – Vinohrady",
    "type": "sborový dům",
    "address": null,
    "cooling": "ac",
    "tier": "B",
    "source": "IPR Praha – ÚAP (KULTKKC)"
   }
  },
  {
   "type": "Feature",
   "geometry": {
    "type": "Point",
    "coordinates": [
     14.404146,
     50.069334
    ]
   },
   "properties": {
    "id": "ipr-kultkkc-centra-4118",
    "name": "Manifesto Market",
    "type": "kulturní centrum",
    "address": null,
    "cooling": "ac",
    "tier": "B",
    "source": "IPR Praha – ÚAP (KULTKKC)"
   }
  },
  {
   "type": "Feature",
   "geometry": {
    "type": "Point",
    "coordinates": [
     14.429305,
     50.090053
    ]
   },
   "properties": {
    "id": "ipr-kultkkc-centra-3911",
    "name": "Dům dětí a mládeže Praha 4 – Hobby centrum 4",
    "type": "dům dětí a mládeže",
    "address": null,
    "cooling": "ac",
    "tier": "B",
    "source": "IPR Praha – ÚAP (KULTKKC)"
   }
  },
  {
   "type": "Feature",
   "geometry": {
    "type": "Point",
    "coordinates": [
     14.452316,
     50.064947
    ]
   },
   "properties": {
    "id": "ipr-kultkkc-centra-3963",
    "name": "Petrohradská kolektiv z.s.",
    "type": "kulturní centrum",
    "address": null,
    "cooling": "ac",
    "tier": "B",
    "source": "IPR Praha – ÚAP (KULTKKC)"
   }
  },
  {
   "type": "Feature",
   "geometry": {
    "type": "Point",
    "coordinates": [
     14.43415,
     50.103335
    ]
   },
   "properties": {
    "id": "ipr-kultkkc-centra-3890",
    "name": "Dům dětí a mládeže Praha 7",
    "type": "dům dětí a mládeže",
    "address": null,
    "cooling": "ac",
    "tier": "B",
    "source": "IPR Praha – ÚAP (KULTKKC)"
   }
  },
  {
   "type": "Feature",
   "geometry": {
    "type": "Point",
    "coordinates": [
     14.48152,
     50.144975
    ]
   },
   "properties": {
    "id": "ipr-kultkkc-centra-3848",
    "name": "KC Vlna",
    "type": "komunitní centrum",
    "address": null,
    "cooling": "ac",
    "tier": "B",
    "source": "IPR Praha – ÚAP (KULTKKC)"
   }
  },
  {
   "type": "Feature",
   "geometry": {
    "type": "Point",
    "coordinates": [
     14.453125,
     50.08727
    ]
   },
   "properties": {
    "id": "ipr-kultkkc-centra-3972",
    "name": "Klub R-Mosty",
    "type": "nízkoprahový klub pro děti a mládež",
    "address": null,
    "cooling": "ac",
    "tier": "B",
    "source": "IPR Praha – ÚAP (KULTKKC)"
   }
  },
  {
   "type": "Feature",
   "geometry": {
    "type": "Point",
    "coordinates": [
     14.531361,
     50.153773
    ]
   },
   "properties": {
    "id": "ipr-kultkkc-centra-3995",
    "name": "Centrum Cirkus",
    "type": "rodinné centrum",
    "address": null,
    "cooling": "ac",
    "tier": "B",
    "source": "IPR Praha – ÚAP (KULTKKC)"
   }
  },
  {
   "type": "Feature",
   "geometry": {
    "type": "Point",
    "coordinates": [
     14.457762,
     50.068615
    ]
   },
   "properties": {
    "id": "ipr-kultkkc-centra-4127",
    "name": "Vršovické literární centrum Waldes",
    "type": "literární centrum",
    "address": null,
    "cooling": "ac",
    "tier": "B",
    "source": "IPR Praha – ÚAP (KULTKKC)"
   }
  },
  {
   "type": "Feature",
   "geometry": {
    "type": "Point",
    "coordinates": [
     14.468165,
     50.095603
    ]
   },
   "properties": {
    "id": "ipr-kultkkc-centra-3859",
    "name": "Studio DK",
    "type": "divadelní sál",
    "address": null,
    "cooling": "ac",
    "tier": "B",
    "source": "IPR Praha – ÚAP (KULTKKC)"
   }
  },
  {
   "type": "Feature",
   "geometry": {
    "type": "Point",
    "coordinates": [
     14.474019,
     50.104098
    ]
   },
   "properties": {
    "id": "ipr-kultkkc-centra-3898",
    "name": "Nová libeňská synagoga",
    "type": "kulturní centrum",
    "address": null,
    "cooling": "ac",
    "tier": "B",
    "source": "IPR Praha – ÚAP (KULTKKC)"
   }
  },
  {
   "type": "Feature",
   "geometry": {
    "type": "Point",
    "coordinates": [
     14.427531,
     50.000556
    ]
   },
   "properties": {
    "id": "ipr-kultkkc-centra-4086",
    "name": "Kulturní centrum \"12\" – pobočka Pertoldova",
    "type": "kulturní centrum",
    "address": null,
    "cooling": "ac",
    "tier": "B",
    "source": "IPR Praha – ÚAP (KULTKKC)"
   }
  },
  {
   "type": "Feature",
   "geometry": {
    "type": "Point",
    "coordinates": [
     14.454974,
     50.06389
    ]
   },
   "properties": {
    "id": "ipr-kultkkc-centra-3957",
    "name": "Klub Decima",
    "type": "nízkoprahový klub pro děti a mládež",
    "address": null,
    "cooling": "ac",
    "tier": "B",
    "source": "IPR Praha – ÚAP (KULTKKC)"
   }
  },
  {
   "type": "Feature",
   "geometry": {
    "type": "Point",
    "coordinates": [
     14.464654,
     50.077402
    ]
   },
   "properties": {
    "id": "ipr-kultkkc-centra-3942",
    "name": "Rodinné a komunitní centrum Paleček, z.s.",
    "type": "rodinné a komunitní centrum",
    "address": null,
    "cooling": "ac",
    "tier": "B",
    "source": "IPR Praha – ÚAP (KULTKKC)"
   }
  },
  {
   "type": "Feature",
   "geometry": {
    "type": "Point",
    "coordinates": [
     14.483295,
     50.031872
    ]
   },
   "properties": {
    "id": "ipr-kultkkc-centra-4074",
    "name": "Komunitní centrum Filipovka",
    "type": "komunitní, integrační a volnočasové centrum",
    "address": null,
    "cooling": "ac",
    "tier": "B",
    "source": "IPR Praha – ÚAP (KULTKKC)"
   }
  },
  {
   "type": "Feature",
   "geometry": {
    "type": "Point",
    "coordinates": [
     14.349131,
     50.050714
    ]
   },
   "properties": {
    "id": "ipr-kultkkc-centra-3994",
    "name": "Czech Photo Centre",
    "type": "kulturní zařízení",
    "address": null,
    "cooling": "ac",
    "tier": "B",
    "source": "IPR Praha – ÚAP (KULTKKC)"
   }
  },
  {
   "type": "Feature",
   "geometry": {
    "type": "Point",
    "coordinates": [
     14.312508,
     50.029887
    ]
   },
   "properties": {
    "id": "ipr-kultkkc-centra-3975",
    "name": "Studio BUBEC",
    "type": "kulturní a komunitní centrum",
    "address": null,
    "cooling": "ac",
    "tier": "B",
    "source": "IPR Praha – ÚAP (KULTKKC)"
   }
  },
  {
   "type": "Feature",
   "geometry": {
    "type": "Point",
    "coordinates": [
     14.412901,
     50.036503
    ]
   },
   "properties": {
    "id": "ipr-kultkkc-centra-4080",
    "name": "Sousedský klub Branická",
    "type": "klub seniorů",
    "address": null,
    "cooling": "ac",
    "tier": "B",
    "source": "IPR Praha – ÚAP (KULTKKC)"
   }
  },
  {
   "type": "Feature",
   "geometry": {
    "type": "Point",
    "coordinates": [
     14.323979,
     50.074313
    ]
   },
   "properties": {
    "id": "ipr-kultkkc-centra-4009",
    "name": "Dům dětí a mládeže Praha 6",
    "type": "dům dětí a mládeže",
    "address": null,
    "cooling": "ac",
    "tier": "B",
    "source": "IPR Praha – ÚAP (KULTKKC)"
   }
  },
  {
   "type": "Feature",
   "geometry": {
    "type": "Point",
    "coordinates": [
     14.461509,
     50.123762
    ]
   },
   "properties": {
    "id": "ipr-kultkkc-centra-3841",
    "name": "Kostel a komunitní centrum U Jákobova žebříku",
    "type": "komunitní centrum",
    "address": null,
    "cooling": "ac",
    "tier": "B",
    "source": "IPR Praha – ÚAP (KULTKKC)"
   }
  },
  {
   "type": "Feature",
   "geometry": {
    "type": "Point",
    "coordinates": [
     14.372867,
     50.035567
    ]
   },
   "properties": {
    "id": "ipr-kultkkc-centra-4096",
    "name": "Komunitní centrum Krista Spasitele",
    "type": "komunitní centrum",
    "address": null,
    "cooling": "ac",
    "tier": "B",
    "source": "IPR Praha – ÚAP (KULTKKC)"
   }
  },
  {
   "type": "Feature",
   "geometry": {
    "type": "Point",
    "coordinates": [
     14.356119,
     50.064897
    ]
   },
   "properties": {
    "id": "ipr-kultkkc-centra-4103",
    "name": "Spolek Hájovna",
    "type": "komunitní centrum",
    "address": null,
    "cooling": "ac",
    "tier": "B",
    "source": "IPR Praha – ÚAP (KULTKKC)"
   }
  },
  {
   "type": "Feature",
   "geometry": {
    "type": "Point",
    "coordinates": [
     14.387275,
     50.099317
    ]
   },
   "properties": {
    "id": "ipr-kultkkc-centra-4001",
    "name": "Vyšší odborná škola pedagogická a sociální, Střední odborná škola pedagogická a Gymnázium, Praha 6, Evropská 33",
    "type": "volnočasové centrum",
    "address": null,
    "cooling": "ac",
    "tier": "B",
    "source": "IPR Praha – ÚAP (KULTKKC)"
   }
  },
  {
   "type": "Feature",
   "geometry": {
    "type": "Point",
    "coordinates": [
     14.560348,
     50.047248
    ]
   },
   "properties": {
    "id": "ipr-kultkkc-centra-3888",
    "name": "Kulturní centrum Varta",
    "type": "kulturní centrum",
    "address": null,
    "cooling": "ac",
    "tier": "B",
    "source": "IPR Praha – ÚAP (KULTKKC)"
   }
  },
  {
   "type": "Feature",
   "geometry": {
    "type": "Point",
    "coordinates": [
     14.345794,
     50.072191
    ]
   },
   "properties": {
    "id": "ipr-kultkkc-centra-4115",
    "name": "Sokolovna Motol",
    "type": "dům dětí a mládeže",
    "address": null,
    "cooling": "ac",
    "tier": "B",
    "source": "IPR Praha – ÚAP (KULTKKC)"
   }
  },
  {
   "type": "Feature",
   "geometry": {
    "type": "Point",
    "coordinates": [
     14.408009,
     50.082914
    ]
   },
   "properties": {
    "id": "ipr-kultkkc-centra-3920",
    "name": "Skautský institut",
    "type": "kulturní a komunitní centrum",
    "address": null,
    "cooling": "ac",
    "tier": "B",
    "source": "IPR Praha – ÚAP (KULTKKC)"
   }
  },
  {
   "type": "Feature",
   "geometry": {
    "type": "Point",
    "coordinates": [
     14.579593,
     50.101991
    ]
   },
   "properties": {
    "id": "ipr-kultkkc-centra-3860",
    "name": "Plechárna Černý most",
    "type": "komunitní centrum",
    "address": null,
    "cooling": "ac",
    "tier": "B",
    "source": "IPR Praha – ÚAP (KULTKKC)"
   }
  },
  {
   "type": "Feature",
   "geometry": {
    "type": "Point",
    "coordinates": [
     14.43251,
     50.065187
    ]
   },
   "properties": {
    "id": "ipr-kultkkc-centra-3916",
    "name": "Klub Beztíže 2",
    "type": "nízkoprahový klub pro děti a mládež",
    "address": null,
    "cooling": "ac",
    "tier": "B",
    "source": "IPR Praha – ÚAP (KULTKKC)"
   }
  },
  {
   "type": "Feature",
   "geometry": {
    "type": "Point",
    "coordinates": [
     14.411461,
     50.068583
    ]
   },
   "properties": {
    "id": "ipr-kultkkc-centra-3983",
    "name": "DOK16 – Sousedská dílna",
    "type": "sousedská dílna",
    "address": null,
    "cooling": "ac",
    "tier": "B",
    "source": "IPR Praha – ÚAP (KULTKKC)"
   }
  },
  {
   "type": "Feature",
   "geometry": {
    "type": "Point",
    "coordinates": [
     14.429582,
     50.087126
    ]
   },
   "properties": {
    "id": "ipr-kultkkc-centra-3924",
    "name": "Kampus Hybernská",
    "type": "kulturní centrum",
    "address": null,
    "cooling": "ac",
    "tier": "B",
    "source": "IPR Praha – ÚAP (KULTKKC)"
   }
  },
  {
   "type": "Feature",
   "geometry": {
    "type": "Point",
    "coordinates": [
     14.565013,
     50.040109
    ]
   },
   "properties": {
    "id": "ipr-kultkkc-centra-3887",
    "name": "Klub seniorů DPS Janovská",
    "type": "klub seniorů",
    "address": null,
    "cooling": "ac",
    "tier": "B",
    "source": "IPR Praha – ÚAP (KULTKKC)"
   }
  },
  {
   "type": "Feature",
   "geometry": {
    "type": "Point",
    "coordinates": [
     14.380283,
     50.113426
    ]
   },
   "properties": {
    "id": "ipr-kultkkc-centra-4121",
    "name": "Farnost sv. Matěje",
    "type": "farní centrum",
    "address": null,
    "cooling": "ac",
    "tier": "B",
    "source": "IPR Praha – ÚAP (KULTKKC)"
   }
  },
  {
   "type": "Feature",
   "geometry": {
    "type": "Point",
    "coordinates": [
     14.405731,
     50.095149
    ]
   },
   "properties": {
    "id": "ipr-kultkkc-centra-3902",
    "name": "Písecká brána",
    "type": "kulturně společenské a komunitní centrum",
    "address": null,
    "cooling": "ac",
    "tier": "B",
    "source": "IPR Praha – ÚAP (KULTKKC)"
   }
  },
  {
   "type": "Feature",
   "geometry": {
    "type": "Point",
    "coordinates": [
     14.460926,
     50.087224
    ]
   },
   "properties": {
    "id": "ipr-kultkkc-centra-3979",
    "name": "Komunitní centrum Ostromečská",
    "type": "komunitní centrum",
    "address": null,
    "cooling": "ac",
    "tier": "B",
    "source": "IPR Praha – ÚAP (KULTKKC)"
   }
  },
  {
   "type": "Feature",
   "geometry": {
    "type": "Point",
    "coordinates": [
     14.408842,
     50.133133
    ]
   },
   "properties": {
    "id": "ipr-kultkkc-centra-3843",
    "name": "Dům dětí a mládeže Praha 8 – Spirála",
    "type": "dům dětí a mládeže",
    "address": null,
    "cooling": "ac",
    "tier": "B",
    "source": "IPR Praha – ÚAP (KULTKKC)"
   }
  },
  {
   "type": "Feature",
   "geometry": {
    "type": "Point",
    "coordinates": [
     14.446748,
     50.083819
    ]
   },
   "properties": {
    "id": "ipr-kultkkc-centra-3976",
    "name": "Punctum Krásovka",
    "type": "kulturní centrum",
    "address": null,
    "cooling": "ac",
    "tier": "B",
    "source": "IPR Praha – ÚAP (KULTKKC)"
   }
  },
  {
   "type": "Feature",
   "geometry": {
    "type": "Point",
    "coordinates": [
     14.477409,
     50.102483
    ]
   },
   "properties": {
    "id": "ipr-kultkkc-centra-3912",
    "name": "Husova kaple a evangelický sborový dům",
    "type": "sborový dům",
    "address": null,
    "cooling": "ac",
    "tier": "B",
    "source": "IPR Praha – ÚAP (KULTKKC)"
   }
  },
  {
   "type": "Feature",
   "geometry": {
    "type": "Point",
    "coordinates": [
     14.459356,
     50.125374
    ]
   },
   "properties": {
    "id": "ipr-kultkkc-centra-4012",
    "name": "Centrum RoSa",
    "type": "klub seniorů",
    "address": null,
    "cooling": "ac",
    "tier": "B",
    "source": "IPR Praha – ÚAP (KULTKKC)"
   }
  },
  {
   "type": "Feature",
   "geometry": {
    "type": "Point",
    "coordinates": [
     14.499073,
     50.034734
    ]
   },
   "properties": {
    "id": "ipr-kultkkc-centra-4065",
    "name": "Chodovská tvrz",
    "type": "kulturní centrum",
    "address": null,
    "cooling": "ac",
    "tier": "B",
    "source": "IPR Praha – ÚAP (KULTKKC)"
   }
  },
  {
   "type": "Feature",
   "geometry": {
    "type": "Point",
    "coordinates": [
     14.437551,
     50.020475
    ]
   },
   "properties": {
    "id": "ipr-kultkkc-centra-4061",
    "name": "Centrum Lhotka",
    "type": "farní centrum",
    "address": null,
    "cooling": "ac",
    "tier": "B",
    "source": "IPR Praha – ÚAP (KULTKKC)"
   }
  },
  {
   "type": "Feature",
   "geometry": {
    "type": "Point",
    "coordinates": [
     14.457954,
     50.071967
    ]
   },
   "properties": {
    "id": "ipr-kultkkc-centra-3962",
    "name": "Bulmex",
    "type": "veřejná dílna",
    "address": null,
    "cooling": "ac",
    "tier": "B",
    "source": "IPR Praha – ÚAP (KULTKKC)"
   }
  },
  {
   "type": "Feature",
   "geometry": {
    "type": "Point",
    "coordinates": [
     14.523259,
     50.15076
    ]
   },
   "properties": {
    "id": "ipr-kultkkc-centra-3857",
    "name": "KC Sýpka",
    "type": "komunitní centrum",
    "address": null,
    "cooling": "ac",
    "tier": "B",
    "source": "IPR Praha – ÚAP (KULTKKC)"
   }
  },
  {
   "type": "Feature",
   "geometry": {
    "type": "Point",
    "coordinates": [
     14.449481,
     50.126743
    ]
   },
   "properties": {
    "id": "ipr-kultkkc-centra-4013",
    "name": "Dům dětí a mládeže Praha 8 – Spirála",
    "type": "dům dětí a mládeže",
    "address": null,
    "cooling": "ac",
    "tier": "B",
    "source": "IPR Praha – ÚAP (KULTKKC)"
   }
  },
  {
   "type": "Feature",
   "geometry": {
    "type": "Point",
    "coordinates": [
     14.445644,
     50.070624
    ]
   },
   "properties": {
    "id": "ipr-kultkkc-centra-3960",
    "name": "Komunitní centrum Protěž II",
    "type": "komunitní centrum",
    "address": null,
    "cooling": "ac",
    "tier": "B",
    "source": "IPR Praha – ÚAP (KULTKKC)"
   }
  },
  {
   "type": "Feature",
   "geometry": {
    "type": "Point",
    "coordinates": [
     14.429841,
     50.084781
    ]
   },
   "properties": {
    "id": "ipr-kultkkc-centra-3930",
    "name": "Slovenská rímskokatolícka farnosť",
    "type": "farní centrum",
    "address": null,
    "cooling": "ac",
    "tier": "B",
    "source": "IPR Praha – ÚAP (KULTKKC)"
   }
  },
  {
   "type": "Feature",
   "geometry": {
    "type": "Point",
    "coordinates": [
     14.418256,
     50.089572
    ]
   },
   "properties": {
    "id": "ipr-kultkkc-centra-4039",
    "name": "Auditorium Oddělení pro vzdělávání a kulturu Židovského muzea v Praze",
    "type": "auditorium",
    "address": null,
    "cooling": "ac",
    "tier": "B",
    "source": "IPR Praha – ÚAP (KULTKKC)"
   }
  },
  {
   "type": "Feature",
   "geometry": {
    "type": "Point",
    "coordinates": [
     14.304773,
     50.067573
    ]
   },
   "properties": {
    "id": "ipr-kultkkc-centra-4005",
    "name": "Kluby seniorů Řepy, Průhon a Centrum",
    "type": "klub seniorů",
    "address": null,
    "cooling": "ac",
    "tier": "B",
    "source": "IPR Praha – ÚAP (KULTKKC)"
   }
  },
  {
   "type": "Feature",
   "geometry": {
    "type": "Point",
    "coordinates": [
     14.450032,
     50.112005
    ]
   },
   "properties": {
    "id": "ipr-kultkkc-centra-4141",
    "name": "Prazelenina",
    "type": "komunitní zahrada",
    "address": null,
    "cooling": "ac",
    "tier": "B",
    "source": "IPR Praha – ÚAP (KULTKKC)"
   }
  },
  {
   "type": "Feature",
   "geometry": {
    "type": "Point",
    "coordinates": [
     14.408024,
     50.085456
    ]
   },
   "properties": {
    "id": "ipr-kultkkc-centra-3919",
    "name": "Werichova vila",
    "type": "kulturní centrum",
    "address": null,
    "cooling": "ac",
    "tier": "B",
    "source": "IPR Praha – ÚAP (KULTKKC)"
   }
  },
  {
   "type": "Feature",
   "geometry": {
    "type": "Point",
    "coordinates": [
     14.521508,
     50.025269
    ]
   },
   "properties": {
    "id": "ipr-kultkkc-centra-4082",
    "name": "Klub Ymkárium",
    "type": "nízkoprahový klub pro děti a mládež",
    "address": null,
    "cooling": "ac",
    "tier": "B",
    "source": "IPR Praha – ÚAP (KULTKKC)"
   }
  },
  {
   "type": "Feature",
   "geometry": {
    "type": "Point",
    "coordinates": [
     14.451685,
     50.123353
    ]
   },
   "properties": {
    "id": "ipr-kultkkc-centra-4011",
    "name": "Salesiánské středisko mládeže – středisko volného času, o.p.s.",
    "type": "dům dětí a mládeže, nízkoprahový klub",
    "address": null,
    "cooling": "ac",
    "tier": "B",
    "source": "IPR Praha – ÚAP (KULTKKC)"
   }
  },
  {
   "type": "Feature",
   "geometry": {
    "type": "Point",
    "coordinates": [
     14.497352,
     50.057425
    ]
   },
   "properties": {
    "id": "ipr-kultkkc-centra-3971",
    "name": "Rodinné centrum K2",
    "type": "rodinné centrum",
    "address": null,
    "cooling": "ac",
    "tier": "B",
    "source": "IPR Praha – ÚAP (KULTKKC)"
   }
  },
  {
   "type": "Feature",
   "geometry": {
    "type": "Point",
    "coordinates": [
     14.419937,
     50.086628
    ]
   },
   "properties": {
    "id": "ipr-kultkkc-centra-4050",
    "name": "Skautský institut",
    "type": "kulturní a komunitní centrum",
    "address": null,
    "cooling": "ac",
    "tier": "B",
    "source": "IPR Praha – ÚAP (KULTKKC)"
   }
  },
  {
   "type": "Feature",
   "geometry": {
    "type": "Point",
    "coordinates": [
     14.463693,
     49.992768
    ]
   },
   "properties": {
    "id": "ipr-kultkkc-centra-4035",
    "name": "Centrum Jasoň",
    "type": "komunitní centrum",
    "address": null,
    "cooling": "ac",
    "tier": "B",
    "source": "IPR Praha – ÚAP (KULTKKC)"
   }
  },
  {
   "type": "Feature",
   "geometry": {
    "type": "Point",
    "coordinates": [
     14.448722,
     50.090874
    ]
   },
   "properties": {
    "id": "ipr-kultkkc-centra-3858",
    "name": "Dům dětí a mládeže hlavního města Prahy",
    "type": "dům dětí a mládeže",
    "address": null,
    "cooling": "ac",
    "tier": "B",
    "source": "IPR Praha – ÚAP (KULTKKC)"
   }
  },
  {
   "type": "Feature",
   "geometry": {
    "type": "Point",
    "coordinates": [
     14.486875,
     50.074537
    ]
   },
   "properties": {
    "id": "ipr-kultkkc-centra-3934",
    "name": "Prostor Olga",
    "type": "komunitní centrum",
    "address": null,
    "cooling": "ac",
    "tier": "B",
    "source": "IPR Praha – ÚAP (KULTKKC)"
   }
  },
  {
   "type": "Feature",
   "geometry": {
    "type": "Point",
    "coordinates": [
     14.4593,
     50.069215
    ]
   },
   "properties": {
    "id": "ipr-kultkkc-centra-3984",
    "name": "Farní sál u sv. Václava",
    "type": "farní centrum",
    "address": null,
    "cooling": "ac",
    "tier": "B",
    "source": "IPR Praha – ÚAP (KULTKKC)"
   }
  },
  {
   "type": "Feature",
   "geometry": {
    "type": "Point",
    "coordinates": [
     14.407669,
     50.084415
    ]
   },
   "properties": {
    "id": "ipr-kultkkc-centra-3993",
    "name": "Komunitní centrum Kampa - sala terrena",
    "type": "komunitní centrum",
    "address": null,
    "cooling": "ac",
    "tier": "B",
    "source": "IPR Praha – ÚAP (KULTKKC)"
   }
  }
 ]
}
