{
 "type": "FeatureCollection",
 "generatedAt": "2026-09-07T12:57:29Z",
 "source": "IPR Praha - UAP (KULTKKC, knihovny vnejsich casti, Geoportal Praha)",
 "features": [
  {
   "type": "Feature",
   "geometry": {
    "type": "Point",
    "coordinates": [
     14.635229,
     50.036481
    ]
   },
   "properties": {
    "id": "ipr-kultkkc-4030",
    "name": "Místní knihovna Praha – Královice",
    "address": null,
    "cooling": "ac",
    "tier": "A",
    "source": "IPR Praha – ÚAP (KULTKKC)"
   }
  },
  {
   "type": "Feature",
   "geometry": {
    "type": "Point",
    "coordinates": [
     14.361176,
     49.981497
    ]
   },
   "properties": {
    "id": "ipr-kultkkc-4055",
    "name": "Místní knihovna Radotín",
    "address": null,
    "cooling": "ac",
    "tier": "A",
    "source": "IPR Praha – ÚAP (KULTKKC)"
   }
  },
  {
   "type": "Feature",
   "geometry": {
    "type": "Point",
    "coordinates": [
     14.354309,
     50.019191
    ]
   },
   "properties": {
    "id": "ipr-kultkkc-4046",
    "name": "Veřejná knihovna Slivenec",
    "address": null,
    "cooling": "ac",
    "tier": "A",
    "source": "IPR Praha – ÚAP (KULTKKC)"
   }
  },
  {
   "type": "Feature",
   "geometry": {
    "type": "Point",
    "coordinates": [
     14.506137,
     50.036618
    ]
   },
   "properties": {
    "id": "ipr-kultkkc-4064",
    "name": "Místní veřejná knihovna Chodov",
    "address": null,
    "cooling": "ac",
    "tier": "A",
    "source": "IPR Praha – ÚAP (KULTKKC)"
   }
  },
  {
   "type": "Feature",
   "geometry": {
    "type": "Point",
    "coordinates": [
     14.483332,
     50.011607
    ]
   },
   "properties": {
    "id": "ipr-kultkkc-4094",
    "name": "Místní veřejná knihovna v Praze – Kunraticích",
    "address": null,
    "cooling": "ac",
    "tier": "A",
    "source": "IPR Praha – ÚAP (KULTKKC)"
   }
  },
  {
   "type": "Feature",
   "geometry": {
    "type": "Point",
    "coordinates": [
     14.618049,
     50.082055
    ]
   },
   "properties": {
    "id": "ipr-kultkkc-4014",
    "name": "Místní knihovna Praha – Běchovice",
    "address": null,
    "cooling": "ac",
    "tier": "A",
    "source": "IPR Praha – ÚAP (KULTKKC)"
   }
  },
  {
   "type": "Feature",
   "geometry": {
    "type": "Point",
    "coordinates": [
     14.365279,
     50.12946
    ]
   },
   "properties": {
    "id": "ipr-kultkkc-4008",
    "name": "Místní knihovna Lysolaje",
    "address": null,
    "cooling": "ac",
    "tier": "A",
    "source": "IPR Praha – ÚAP (KULTKKC)"
   }
  },
  {
   "type": "Feature",
   "geometry": {
    "type": "Point",
    "coordinates": [
     14.359893,
     49.960136
    ]
   },
   "properties": {
    "id": "ipr-kultkkc-4036",
    "name": "Místní veřejná knihovna v Praze – Lipencích",
    "address": null,
    "cooling": "ac",
    "tier": "A",
    "source": "IPR Praha – ÚAP (KULTKKC)"
   }
  },
  {
   "type": "Feature",
   "geometry": {
    "type": "Point",
    "coordinates": [
     14.556583,
     50.035739
    ]
   },
   "properties": {
    "id": "ipr-kultkkc-3885",
    "name": "Místní knihovna MČ Praha – Petrovice",
    "address": null,
    "cooling": "ac",
    "tier": "A",
    "source": "IPR Praha – ÚAP (KULTKKC)"
   }
  },
  {
   "type": "Feature",
   "geometry": {
    "type": "Point",
    "coordinates": [
     14.652343,
     50.017398
    ]
   },
   "properties": {
    "id": "ipr-kultkkc-4038",
    "name": "Místní knihovna Praha – Nedvězí",
    "address": null,
    "cooling": "ac",
    "tier": "A",
    "source": "IPR Praha – ÚAP (KULTKKC)"
   }
  },
  {
   "type": "Feature",
   "geometry": {
    "type": "Point",
    "coordinates": [
     14.352974,
     50.002625
    ]
   },
   "properties": {
    "id": "ipr-kultkkc-4033",
    "name": "Místní knihovna Praha – Lochkov",
    "address": null,
    "cooling": "ac",
    "tier": "A",
    "source": "IPR Praha – ÚAP (KULTKKC)"
   }
  },
  {
   "type": "Feature",
   "geometry": {
    "type": "Point",
    "coordinates": [
     14.668732,
     50.095153
    ]
   },
   "properties": {
    "id": "ipr-kultkkc-4021",
    "name": "Místní knihovna Praha – Klánovice",
    "address": null,
    "cooling": "ac",
    "tier": "A",
    "source": "IPR Praha – ÚAP (KULTKKC)"
   }
  },
  {
   "type": "Feature",
   "geometry": {
    "type": "Point",
    "coordinates": [
     14.48093,
     50.144237
    ]
   },
   "properties": {
    "id": "ipr-kultkkc-3849",
    "name": "Místní knihovna Praha – Ďáblice",
    "address": null,
    "cooling": "ac",
    "tier": "A",
    "source": "IPR Praha – ÚAP (KULTKKC)"
   }
  },
  {
   "type": "Feature",
   "geometry": {
    "type": "Point",
    "coordinates": [
     14.52293,
     50.16281
    ]
   },
   "properties": {
    "id": "ipr-kultkkc-3856",
    "name": "Místní knihovna Třeboradice",
    "address": null,
    "cooling": "ac",
    "tier": "A",
    "source": "IPR Praha – ÚAP (KULTKKC)"
   }
  },
  {
   "type": "Feature",
   "geometry": {
    "type": "Point",
    "coordinates": [
     14.513526,
     50.013199
    ]
   },
   "properties": {
    "id": "ipr-kultkkc-4048",
    "name": "Místní veřejná knihovna v Praze – Šeberově",
    "address": null,
    "cooling": "ac",
    "tier": "A",
    "source": "IPR Praha – ÚAP (KULTKKC)"
   }
  },
  {
   "type": "Feature",
   "geometry": {
    "type": "Point",
    "coordinates": [
     14.595887,
     50.063213
    ]
   },
   "properties": {
    "id": "ipr-kultkkc-4022",
    "name": "Místní knihovna Praha – Dubeč",
    "address": null,
    "cooling": "ac",
    "tier": "A",
    "source": "IPR Praha – ÚAP (KULTKKC)"
   }
  },
  {
   "type": "Feature",
   "geometry": {
    "type": "Point",
    "coordinates": [
     14.444155,
     50.077117
    ]
   },
   "properties": {
    "id": "ipr-kultkkc-3946",
    "name": "Knihovna na Vinohradech",
    "address": null,
    "cooling": "ac",
    "tier": "A",
    "source": "IPR Praha – ÚAP (KULTKKC)"
   }
  },
  {
   "type": "Feature",
   "geometry": {
    "type": "Point",
    "coordinates": [
     14.521644,
     50.151894
    ]
   },
   "properties": {
    "id": "ipr-kultkkc-3864",
    "name": "Místní knihovna Čakovice",
    "address": null,
    "cooling": "ac",
    "tier": "A",
    "source": "IPR Praha – ÚAP (KULTKKC)"
   }
  },
  {
   "type": "Feature",
   "geometry": {
    "type": "Point",
    "coordinates": [
     14.409912,
     50.013613
    ]
   },
   "properties": {
    "id": "ipr-kultkkc-4083",
    "name": "Husova knihovna v Modřanech – pobočka Tyršova čtvrť",
    "address": null,
    "cooling": "ac",
    "tier": "A",
    "source": "IPR Praha – ÚAP (KULTKKC)"
   }
  },
  {
   "type": "Feature",
   "geometry": {
    "type": "Point",
    "coordinates": [
     14.549498,
     50.073023
    ]
   },
   "properties": {
    "id": "ipr-kultkkc-3881",
    "name": "Místní knihovna Praha – Štěrboholy",
    "address": null,
    "cooling": "ac",
    "tier": "A",
    "source": "IPR Praha – ÚAP (KULTKKC)"
   }
  },
  {
   "type": "Feature",
   "geometry": {
    "type": "Point",
    "coordinates": [
     14.445691,
     50.146645
    ]
   },
   "properties": {
    "id": "ipr-kultkkc-3851",
    "name": "Chaberský dvůr a Místní veřejná knihovna v Praze – Dolních Chabrech",
    "address": null,
    "cooling": "ac",
    "tier": "A",
    "source": "IPR Praha – ÚAP (KULTKKC)"
   }
  },
  {
   "type": "Feature",
   "geometry": {
    "type": "Point",
    "coordinates": [
     14.626352,
     50.011376
    ]
   },
   "properties": {
    "id": "ipr-kultkkc-4031",
    "name": "Knihovna s infocentrem – Kolovraty",
    "address": null,
    "cooling": "ac",
    "tier": "A",
    "source": "IPR Praha – ÚAP (KULTKKC)"
   }
  },
  {
   "type": "Feature",
   "geometry": {
    "type": "Point",
    "coordinates": [
     14.286714,
     50.063262
    ]
   },
   "properties": {
    "id": "ipr-kultkkc-3998",
    "name": "Zličínská knihovna",
    "address": null,
    "cooling": "ac",
    "tier": "A",
    "source": "IPR Praha – ÚAP (KULTKKC)"
   }
  },
  {
   "type": "Feature",
   "geometry": {
    "type": "Point",
    "coordinates": [
     14.57408,
     50.127313
    ]
   },
   "properties": {
    "id": "ipr-kultkkc-4041",
    "name": "Místní knihovna Praha Satalice",
    "address": null,
    "cooling": "ac",
    "tier": "A",
    "source": "IPR Praha – ÚAP (KULTKKC)"
   }
  },
  {
   "type": "Feature",
   "geometry": {
    "type": "Point",
    "coordinates": [
     14.485868,
     50.165043
    ]
   },
   "properties": {
    "id": "ipr-kultkkc-4017",
    "name": "Místní knihovna Praha – Březiněves",
    "address": null,
    "cooling": "ac",
    "tier": "A",
    "source": "IPR Praha – ÚAP (KULTKKC)"
   }
  },
  {
   "type": "Feature",
   "geometry": {
    "type": "Point",
    "coordinates": [
     14.301668,
     50.065159
    ]
   },
   "properties": {
    "id": "ipr-kultkkc-4004",
    "name": "Kulturní centrum Průhon a Místní knihovna v Praze 17 – Řepy",
    "address": null,
    "cooling": "ac",
    "tier": "A",
    "source": "IPR Praha – ÚAP (KULTKKC)"
   }
  },
  {
   "type": "Feature",
   "geometry": {
    "type": "Point",
    "coordinates": [
     14.607206,
     50.114294
    ]
   },
   "properties": {
    "id": "ipr-kultkkc-4024",
    "name": "Kulturně komunitní centrum Horní Počernice a Místní veřejná knihovna Praha – Horní Počernice",
    "address": null,
    "cooling": "ac",
    "tier": "A",
    "source": "IPR Praha – ÚAP (KULTKKC)"
   }
  },
  {
   "type": "Feature",
   "geometry": {
    "type": "Point",
    "coordinates": [
     14.405094,
     50.002845
    ]
   },
   "properties": {
    "id": "ipr-kultkkc-4087",
    "name": "Husova knihovna v Modřanech",
    "address": null,
    "cooling": "ac",
    "tier": "A",
    "source": "IPR Praha – ÚAP (KULTKKC)"
   }
  },
  {
   "type": "Feature",
   "geometry": {
    "type": "Point",
    "coordinates": [
     14.638211,
     50.062161
    ]
   },
   "properties": {
    "id": "ipr-kultkkc-4028",
    "name": "Klub kolodějských seniorů a Místní knihovna Praha – Koloděje",
    "address": null,
    "cooling": "ac",
    "tier": "A",
    "source": "IPR Praha – ÚAP (KULTKKC)"
   }
  },
  {
   "type": "Feature",
   "geometry": {
    "type": "Point",
    "coordinates": [
     14.510359,
     50.136344
    ]
   },
   "properties": {
    "id": "ipr-kultkkc-3882",
    "name": "Knihovna MČ Praha 18",
    "address": null,
    "cooling": "ac",
    "tier": "A",
    "source": "IPR Praha – ÚAP (KULTKKC)"
   }
  },
  {
   "type": "Feature",
   "geometry": {
    "type": "Point",
    "coordinates": [
     14.39618,
     49.975791
    ]
   },
   "properties": {
    "id": "ipr-kultkkc-4101",
    "name": "Mistní knihovna Praha-Zbraslav",
    "address": null,
    "cooling": "ac",
    "tier": "A",
    "source": "IPR Praha – ÚAP (KULTKKC)"
   }
  },
  {
   "type": "Feature",
   "geometry": {
    "type": "Point",
    "coordinates": [
     14.598315,
     50.032631
    ]
   },
   "properties": {
    "id": "ipr-kultkkc-4042",
    "name": "Místní knihovna Uhříněves",
    "address": null,
    "cooling": "ac",
    "tier": "A",
    "source": "IPR Praha – ÚAP (KULTKKC)"
   }
  },
  {
   "type": "Feature",
   "geometry": {
    "type": "Point",
    "coordinates": [
     14.308592,
     50.030635
    ]
   },
   "properties": {
    "id": "ipr-kultkkc-3980",
    "name": "Místní knihovna Praha 5 – Řeporyje",
    "address": null,
    "cooling": "ac",
    "tier": "A",
    "source": "IPR Praha – ÚAP (KULTKKC)"
   }
  },
  {
   "type": "Feature",
   "geometry": {
    "type": "Point",
    "coordinates": [
     14.659003,
     50.076284
    ]
   },
   "properties": {
    "id": "ipr-kultkkc-4049",
    "name": "Level 21: DDM Praha 10 – Dům UM a Místní knihovna Praha – Újezd nad Lesy",
    "address": null,
    "cooling": "ac",
    "tier": "A",
    "source": "IPR Praha – ÚAP (KULTKKC)"
   }
  },
  {
   "type": "Feature",
   "geometry": {
    "type": "Point",
    "coordinates": [
     14.547229,
     50.133677
    ]
   },
   "properties": {
    "id": "ipr-kultkkc-3874",
    "name": "Místní knihovna Praha – Kbely",
    "address": null,
    "cooling": "ac",
    "tier": "A",
    "source": "IPR Praha – ÚAP (KULTKKC)"
   }
  },
  {
   "type": "Feature",
   "geometry": {
    "type": "Point",
    "coordinates": [
     14.2979,
     50.11721
    ]
   },
   "properties": {
    "id": "ipr-kultkkc-4043",
    "name": "Místní knihovna Praha – Přední Kopanina",
    "address": null,
    "cooling": "ac",
    "tier": "A",
    "source": "IPR Praha – ÚAP (KULTKKC)"
   }
  },
  {
   "type": "Feature",
   "geometry": {
    "type": "Point",
    "coordinates": [
     14.579307,
     50.146223
    ]
   },
   "properties": {
    "id": "ipr-kultkkc-4054",
    "name": "kulturně vzdělávací centrum Vincent a Místní knihovna Praha – Vinoř",
    "address": null,
    "cooling": "ac",
    "tier": "A",
    "source": "IPR Praha – ÚAP (KULTKKC)"
   }
  },
  {
   "type": "Feature",
   "geometry": {
    "type": "Point",
    "coordinates": [
     14.604903,
     50.013772
    ]
   },
   "properties": {
    "id": "ipr-kultkkc-4015",
    "name": "Místní knihovna Praha – Benice",
    "address": null,
    "cooling": "ac",
    "tier": "A",
    "source": "IPR Praha – ÚAP (KULTKKC)"
   }
  },
  {
   "type": "Feature",
   "geometry": {
    "type": "Point",
    "coordinates": [
     14.378849,
     50.139888
    ]
   },
   "properties": {
    "id": "ipr-kultkkc-3845",
    "name": "Místní veřejná knihovna Praha-Suchdol",
    "address": null,
    "cooling": "ac",
    "tier": "A",
    "source": "IPR Praha – ÚAP (KULTKKC)"
   }
  },
  {
   "type": "Feature",
   "geometry": {
    "type": "Point",
    "coordinates": [
     14.578866,
     50.088731
    ]
   },
   "properties": {
    "id": "ipr-kultkkc-4018",
    "name": "Místní knihovna Dolní Počernice",
    "address": null,
    "cooling": "ac",
    "tier": "A",
    "source": "IPR Praha – ÚAP (KULTKKC)"
   }
  }
 ]
}
