{
 "type": "FeatureCollection",
 "generatedAt": "2026-08-31T14:17:17Z",
 "source": "IPR Praha – Oazy chladu (Geoportal Praha, CC BY)",
 "features": [
  {
   "type": "Feature",
   "geometry": {
    "type": "Point",
    "coordinates": [
     14.417687,
     50.08688
    ]
   },
   "properties": {
    "id": "ipr-mlzitka-365",
    "name": "Mariánské náměstí",
    "note": "mlžící sprcha; květen - září",
    "source": "IPR Praha – Oázy chladu"
   }
  },
  {
   "type": "Feature",
   "geometry": {
    "type": "Point",
    "coordinates": [
     14.404631,
     50.083237
    ]
   },
   "properties": {
    "id": "ipr-mlzitka-366",
    "name": "Újezd",
    "note": "mlžící sprcha; květen - září",
    "source": "IPR Praha – Oázy chladu"
   }
  },
  {
   "type": "Feature",
   "geometry": {
    "type": "Point",
    "coordinates": [
     14.422594,
     50.083024
    ]
   },
   "properties": {
    "id": "ipr-mlzitka-367",
    "name": "Jungmannovo náměstí",
    "note": "mlžící sprcha; květen - září",
    "source": "IPR Praha – Oázy chladu"
   }
  },
  {
   "type": "Feature",
   "geometry": {
    "type": "Point",
    "coordinates": [
     14.428707,
     50.087977
    ]
   },
   "properties": {
    "id": "ipr-mlzitka-368",
    "name": "náměstí Republiky",
    "note": "mlžící sprcha; květen - září",
    "source": "IPR Praha – Oázy chladu"
   }
  },
  {
   "type": "Feature",
   "geometry": {
    "type": "Point",
    "coordinates": [
     14.429129,
     50.088512
    ]
   },
   "properties": {
    "id": "ipr-mlzitka-369",
    "name": "náměstí Republiky",
    "note": "mlžící sprcha; květen - září",
    "source": "IPR Praha – Oázy chladu"
   }
  },
  {
   "type": "Feature",
   "geometry": {
    "type": "Point",
    "coordinates": [
     14.420305,
     50.083984
    ]
   },
   "properties": {
    "id": "ipr-mlzitka-370",
    "name": "Uhelný trh",
    "note": "mlžící sprcha; květen - září",
    "source": "IPR Praha – Oázy chladu"
   }
  },
  {
   "type": "Feature",
   "geometry": {
    "type": "Point",
    "coordinates": [
     14.419998,
     50.087608
    ]
   },
   "properties": {
    "id": "ipr-mlzitka-371",
    "name": "Staroměstské náměstí",
    "note": "mlžící sprcha; květen - září",
    "source": "IPR Praha – Oázy chladu"
   }
  },
  {
   "type": "Feature",
   "geometry": {
    "type": "Point",
    "coordinates": [
     14.42454,
     50.086538
    ]
   },
   "properties": {
    "id": "ipr-mlzitka-372",
    "name": "Ovocný trh",
    "note": "mlžící sprcha; květen - září",
    "source": "IPR Praha – Oázy chladu"
   }
  },
  {
   "type": "Feature",
   "geometry": {
    "type": "Point",
    "coordinates": [
     14.424518,
     50.085177
    ]
   },
   "properties": {
    "id": "ipr-mlzitka-373",
    "name": "ul Havířská",
    "note": "mlžící sprcha; květen - září",
    "source": "IPR Praha – Oázy chladu"
   }
  },
  {
   "type": "Feature",
   "geometry": {
    "type": "Point",
    "coordinates": [
     14.482117,
     50.031738
    ]
   },
   "properties": {
    "id": "ipr-mlzitka-374",
    "name": "Pošepného náměstí",
    "note": "mlžící sprcha; květen - září",
    "source": "IPR Praha – Oázy chladu"
   }
  },
  {
   "type": "Feature",
   "geometry": {
    "type": "Point",
    "coordinates": [
     14.492638,
     50.02444
    ]
   },
   "properties": {
    "id": "ipr-mlzitka-375",
    "name": "Jírovcovo náměstí",
    "note": "mlžící sprcha; květen - září",
    "source": "IPR Praha – Oázy chladu"
   }
  },
  {
   "type": "Feature",
   "geometry": {
    "type": "Point",
    "coordinates": [
     14.518497,
     50.034799
    ]
   },
   "properties": {
    "id": "ipr-mlzitka-376",
    "name": "Chalupkova",
    "note": "mlžící sprcha; květen - září",
    "source": "IPR Praha – Oázy chladu"
   }
  },
  {
   "type": "Feature",
   "geometry": {
    "type": "Point",
    "coordinates": [
     14.504853,
     50.032761
    ]
   },
   "properties": {
    "id": "ipr-mlzitka-377",
    "name": "Valentova 1744",
    "note": "mlžící sprcha; květen - září",
    "source": "IPR Praha – Oázy chladu"
   }
  },
  {
   "type": "Feature",
   "geometry": {
    "type": "Point",
    "coordinates": [
     14.530163,
     50.031728
    ]
   },
   "properties": {
    "id": "ipr-mlzitka-378",
    "name": "nám. Kosmonautů",
    "note": "mlžící sprcha; květen - září",
    "source": "IPR Praha – Oázy chladu"
   }
  },
  {
   "type": "Feature",
   "geometry": {
    "type": "Point",
    "coordinates": [
     14.516205,
     50.045196
    ]
   },
   "properties": {
    "id": "ipr-mlzitka-379",
    "name": "Chudenická / Berlínská",
    "note": "mlžící sprcha; květen - září",
    "source": "IPR Praha – Oázy chladu"
   }
  },
  {
   "type": "Feature",
   "geometry": {
    "type": "Point",
    "coordinates": [
     14.560628,
     50.047082
    ]
   },
   "properties": {
    "id": "ipr-mlzitka-380",
    "name": "ZŠ Křimická",
    "note": "mlžící sprcha; květen - září",
    "source": "IPR Praha – Oázy chladu"
   }
  },
  {
   "type": "Feature",
   "geometry": {
    "type": "Point",
    "coordinates": [
     14.304889,
     50.068408
    ]
   },
   "properties": {
    "id": "ipr-mlzitka-381",
    "name": "Španielova",
    "note": "mlžící sprcha; květen - září",
    "source": "IPR Praha – Oázy chladu"
   }
  },
  {
   "type": "Feature",
   "geometry": {
    "type": "Point",
    "coordinates": [
     14.3047,
     50.06421
    ]
   },
   "properties": {
    "id": "ipr-mlzitka-382",
    "name": "Peřinova",
    "note": "mlžící sprcha; květen - září",
    "source": "IPR Praha – Oázy chladu"
   }
  },
  {
   "type": "Feature",
   "geometry": {
    "type": "Point",
    "coordinates": [
     14.313392,
     50.066682
    ]
   },
   "properties": {
    "id": "ipr-mlzitka-383",
    "name": "Laudova",
    "note": "mlžící sprcha; květen - září",
    "source": "IPR Praha – Oázy chladu"
   }
  },
  {
   "type": "Feature",
   "geometry": {
    "type": "Point",
    "coordinates": [
     14.415169,
     50.073179
    ]
   },
   "properties": {
    "id": "ipr-mlzitka-384",
    "name": "Palackého náměstí",
    "note": "mlžící sprcha; květen - září",
    "source": "IPR Praha – Oázy chladu"
   }
  },
  {
   "type": "Feature",
   "geometry": {
    "type": "Point",
    "coordinates": [
     14.432044,
     50.075068
    ]
   },
   "properties": {
    "id": "ipr-mlzitka-385",
    "name": "Tylovo náměstí",
    "note": "mlžící sprcha; květen - září",
    "source": "IPR Praha – Oázy chladu"
   }
  },
  {
   "type": "Feature",
   "geometry": {
    "type": "Point",
    "coordinates": [
     14.424082,
     50.0655
    ]
   },
   "properties": {
    "id": "ipr-mlzitka-386",
    "name": "Ostrčilovo náměstí",
    "note": "mlžící sprcha; květen - září",
    "source": "IPR Praha – Oázy chladu"
   }
  },
  {
   "type": "Feature",
   "geometry": {
    "type": "Point",
    "coordinates": [
     14.415084,
     50.068097
    ]
   },
   "properties": {
    "id": "ipr-mlzitka-387",
    "name": "Rašínovo nábřeží",
    "note": "mlžící sprcha; květen - září",
    "source": "IPR Praha – Oázy chladu"
   }
  },
  {
   "type": "Feature",
   "geometry": {
    "type": "Point",
    "coordinates": [
     14.403473,
     50.072091
    ]
   },
   "properties": {
    "id": "ipr-mlzitka-388",
    "name": "Plzeňská",
    "note": "mlžící sprcha; květen - září",
    "source": "IPR Praha – Oázy chladu"
   }
  },
  {
   "type": "Feature",
   "geometry": {
    "type": "Point",
    "coordinates": [
     14.405307,
     50.096424
    ]
   },
   "properties": {
    "id": "ipr-mlzitka-389",
    "name": "Na valech",
    "note": "mlžící sprcha; květen - září",
    "source": "IPR Praha – Oázy chladu"
   }
  },
  {
   "type": "Feature",
   "geometry": {
    "type": "Point",
    "coordinates": [
     14.396449,
     50.10118
    ]
   },
   "properties": {
    "id": "ipr-mlzitka-390",
    "name": "Vítězné náměstí",
    "note": "mlžící sprcha; květen - září",
    "source": "IPR Praha – Oázy chladu"
   }
  },
  {
   "type": "Feature",
   "geometry": {
    "type": "Point",
    "coordinates": [
     14.497497,
     50.035722
    ]
   },
   "properties": {
    "id": "ipr-mlzitka-391",
    "name": "Park u Chodovské tvrze",
    "note": "mlžící brána; květen - září",
    "source": "IPR Praha – Oázy chladu"
   }
  },
  {
   "type": "Feature",
   "geometry": {
    "type": "Point",
    "coordinates": [
     14.434169,
     50.098901
    ]
   },
   "properties": {
    "id": "ipr-mlzitka-392",
    "name": "Strossmayerovo náměstí",
    "note": "ostatní mlžící prvek; květen - září",
    "source": "IPR Praha – Oázy chladu"
   }
  },
  {
   "type": "Feature",
   "geometry": {
    "type": "Point",
    "coordinates": [
     14.447882,
     50.088187
    ]
   },
   "properties": {
    "id": "ipr-mlzitka-393",
    "name": "park Vítkov",
    "note": "mlžítko; květen - září",
    "source": "IPR Praha – Oázy chladu"
   }
  },
  {
   "type": "Feature",
   "geometry": {
    "type": "Point",
    "coordinates": [
     14.514,
     50.02996
    ]
   },
   "properties": {
    "id": "ipr-mlzitka-394",
    "name": "Mikulova",
    "note": "mlžítko; květen - září",
    "source": "IPR Praha – Oázy chladu"
   }
  },
  {
   "type": "Feature",
   "geometry": {
    "type": "Point",
    "coordinates": [
     14.599474,
     50.031699
    ]
   },
   "properties": {
    "id": "ipr-mlzitka-395",
    "name": "Nové náměstí",
    "note": "mlžítko; květen - září",
    "source": "IPR Praha – Oázy chladu"
   }
  },
  {
   "type": "Feature",
   "geometry": {
    "type": "Point",
    "coordinates": [
     14.351918,
     50.071537
    ]
   },
   "properties": {
    "id": "ipr-mlzitka-396",
    "name": "Hamsíkova",
    "note": "mlžítko; květen - září",
    "source": "IPR Praha – Oázy chladu"
   }
  },
  {
   "type": "Feature",
   "geometry": {
    "type": "Point",
    "coordinates": [
     14.376935,
     50.034257
    ]
   },
   "properties": {
    "id": "ipr-mlzitka-397",
    "name": "Tilleho náměstí",
    "note": "mlžítko; květen - září",
    "source": "IPR Praha – Oázy chladu"
   }
  },
  {
   "type": "Feature",
   "geometry": {
    "type": "Point",
    "coordinates": [
     14.375441,
     50.033013
    ]
   },
   "properties": {
    "id": "ipr-mlzitka-398",
    "name": "Tilleho náměstí",
    "note": "mlžítko; květen - září",
    "source": "IPR Praha – Oázy chladu"
   }
  },
  {
   "type": "Feature",
   "geometry": {
    "type": "Point",
    "coordinates": [
     14.404892,
     50.097579
    ]
   },
   "properties": {
    "id": "ipr-mlzitka-399",
    "name": "Hradčanská u přechodu přes trať",
    "note": "mlžítko; květen - září",
    "source": "IPR Praha – Oázy chladu"
   }
  },
  {
   "type": "Feature",
   "geometry": {
    "type": "Point",
    "coordinates": [
     14.389418,
     50.103706
    ]
   },
   "properties": {
    "id": "ipr-mlzitka-400",
    "name": "Technická/Thákurova",
    "note": "mlžítko; květen - září",
    "source": "IPR Praha – Oázy chladu"
   }
  },
  {
   "type": "Feature",
   "geometry": {
    "type": "Point",
    "coordinates": [
     14.308367,
     50.090875
    ]
   },
   "properties": {
    "id": "ipr-mlzitka-401",
    "name": "Dědina",
    "note": "mlžítko; květen - září",
    "source": "IPR Praha – Oázy chladu"
   }
  },
  {
   "type": "Feature",
   "geometry": {
    "type": "Point",
    "coordinates": [
     14.395849,
     50.105985
    ]
   },
   "properties": {
    "id": "ipr-mlzitka-402",
    "name": "náměstí Interbrigády",
    "note": "mlžítko; květen - září",
    "source": "IPR Praha – Oázy chladu"
   }
  },
  {
   "type": "Feature",
   "geometry": {
    "type": "Point",
    "coordinates": [
     14.376754,
     50.106721
    ]
   },
   "properties": {
    "id": "ipr-mlzitka-403",
    "name": "Hanspaulka",
    "note": "mlžítko; květen - září",
    "source": "IPR Praha – Oázy chladu"
   }
  },
  {
   "type": "Feature",
   "geometry": {
    "type": "Point",
    "coordinates": [
     14.374993,
     50.098605
    ]
   },
   "properties": {
    "id": "ipr-mlzitka-404",
    "name": "Park Hadovka",
    "note": "mlžítko; květen - září",
    "source": "IPR Praha – Oázy chladu"
   }
  },
  {
   "type": "Feature",
   "geometry": {
    "type": "Point",
    "coordinates": [
     14.387882,
     50.087735
    ]
   },
   "properties": {
    "id": "ipr-mlzitka-405",
    "name": "roh Parléřova a Pohořelec, přesunuto z Petřin 21.7.",
    "note": "mlžítko; květen - září",
    "source": "IPR Praha – Oázy chladu"
   }
  },
  {
   "type": "Feature",
   "geometry": {
    "type": "Point",
    "coordinates": [
     14.448659,
     50.091227
    ]
   },
   "properties": {
    "id": "ipr-mlzitka-406",
    "name": "Karlínské náměstí - ideálně v blízkosti kostela",
    "note": "mlžítko; květen - září",
    "source": "IPR Praha – Oázy chladu"
   }
  },
  {
   "type": "Feature",
   "geometry": {
    "type": "Point",
    "coordinates": [
     14.469757,
     50.127123
    ]
   },
   "properties": {
    "id": "ipr-mlzitka-407",
    "name": "Ládví náměstí (u kulturního domu)",
    "note": "mlžítko; květen - září",
    "source": "IPR Praha – Oázy chladu"
   }
  },
  {
   "type": "Feature",
   "geometry": {
    "type": "Point",
    "coordinates": [
     14.409289,
     50.077878
    ]
   },
   "properties": {
    "id": "ipr-mlzitka-408",
    "name": "Mlžící sprcha",
    "note": "mlžící sprcha; květen - září; provozovatel: MČ Praha 5",
    "source": "IPR Praha – Oázy chladu"
   }
  },
  {
   "type": "Feature",
   "geometry": {
    "type": "Point",
    "coordinates": [
     14.399062,
     50.090276
    ]
   },
   "properties": {
    "id": "ipr-mlzitka-409",
    "name": "II. nádvoří Pražského hradu",
    "note": "mlžící sprcha; květen - září",
    "source": "IPR Praha – Oázy chladu"
   }
  },
  {
   "type": "Feature",
   "geometry": {
    "type": "Point",
    "coordinates": [
     14.398686,
     50.091707
    ]
   },
   "properties": {
    "id": "ipr-mlzitka-410",
    "name": "U Prašného mostu",
    "note": "mlžící sprcha; květen - září",
    "source": "IPR Praha – Oázy chladu"
   }
  },
  {
   "type": "Feature",
   "geometry": {
    "type": "Point",
    "coordinates": [
     14.403332,
     50.091686
    ]
   },
   "properties": {
    "id": "ipr-mlzitka-411",
    "name": "Zlatá ulička u Daliborky",
    "note": "mlžící sprcha; květen - září",
    "source": "IPR Praha – Oázy chladu"
   }
  },
  {
   "type": "Feature",
   "geometry": {
    "type": "Point",
    "coordinates": [
     14.34444,
     50.08791
    ]
   },
   "properties": {
    "id": "ipr-mlzitka-412",
    "name": "Brunclíkova x Na Petřinách",
    "note": "mlžítko; květen - září",
    "source": "IPR Praha – Oázy chladu"
   }
  },
  {
   "type": "Feature",
   "geometry": {
    "type": "Point",
    "coordinates": [
     14.34171,
     50.08581
    ]
   },
   "properties": {
    "id": "ipr-mlzitka-413",
    "name": "Mahulenina x U Petřin",
    "note": "mlžítko; květen - září",
    "source": "IPR Praha – Oázy chladu"
   }
  },
  {
   "type": "Feature",
   "geometry": {
    "type": "Point",
    "coordinates": [
     14.483208,
     50.144896
    ]
   },
   "properties": {
    "id": "ipr-mlzitka-414",
    "name": "Hořinecká",
    "note": "mlžící sprcha; květen - září",
    "source": "IPR Praha – Oázy chladu"
   }
  },
  {
   "type": "Feature",
   "geometry": {
    "type": "Point",
    "coordinates": [
     14.524065,
     50.151295
    ]
   },
   "properties": {
    "id": "ipr-mlzitka-415",
    "name": "náměstí 25. března",
    "note": "mlžítko; květen - září",
    "source": "IPR Praha – Oázy chladu"
   }
  },
  {
   "type": "Feature",
   "geometry": {
    "type": "Point",
    "coordinates": [
     14.572411,
     50.004753
    ]
   },
   "properties": {
    "id": "ipr-mlzitka-416",
    "name": "mlžítka na dětském hřišti u  OC Spektrum v Čestlicích",
    "note": "mlžící sprcha; 24/7",
    "source": "IPR Praha – Oázy chladu"
   }
  }
 ]
}
