{
 "type": "FeatureCollection",
 "generatedAt": "2026-09-21T01:05:50Z",
 "source": "ČHMÚ – otevrena data (opendata.chmi.cz)",
 "features": [
  {
   "type": "Feature",
   "geometry": {
    "type": "Point",
    "coordinates": [
     14.255556,
     50.100278
    ]
   },
   "properties": {
    "id": "0-20000-0-11518",
    "name": "Praha, Ruzyně",
    "temp_c": 10.6,
    "measuredAt": "2026-09-21T00:50:00Z",
    "klass": "pro",
    "source": "ČHMÚ"
   }
  },
  {
   "type": "Feature",
   "geometry": {
    "type": "Point",
    "coordinates": [
     14.427778,
     50.069167
    ]
   },
   "properties": {
    "id": "0-20000-0-11519",
    "name": "Praha, Karlov",
    "temp_c": 12.6,
    "measuredAt": "2026-09-21T00:50:00Z",
    "klass": "pro",
    "source": "ČHMÚ"
   }
  },
  {
   "type": "Feature",
   "geometry": {
    "type": "Point",
    "coordinates": [
     14.446944,
     50.007778
    ]
   },
   "properties": {
    "id": "0-20000-0-11520",
    "name": "Praha, Libuš",
    "temp_c": 10.8,
    "measuredAt": "2026-09-21T00:50:00Z",
    "klass": "pro",
    "source": "ČHMÚ"
   }
  },
  {
   "type": "Feature",
   "geometry": {
    "type": "Point",
    "coordinates": [
     14.538056,
     50.123333
    ]
   },
   "properties": {
    "id": "0-20000-0-11567",
    "name": "Praha, Kbely",
    "temp_c": 12.3,
    "measuredAt": "2026-09-21T00:50:00Z",
    "klass": "pro",
    "source": "ČHMÚ"
   }
  }
 ]
}
